{"type":"FeatureCollection","features":[{"type":"Feature","properties":{"nom":"Parc de Diagonal Mar","districte":"Sant Martí","barri":"Diagonal Mar i el Front Marítim del Poblenou","adreca":"Carrer de Llull"},"geometry":{"type":"Point","coordinates":[2.212231951523546,41.40849031137141]}},{"type":"Feature","properties":{"nom":"Parc del Mirador del Migdia","districte":"Sants-Montjuïc","barri":"el Poble-sec","adreca":"Passeig del Migdia"},"geometry":{"type":"Point","coordinates":[2.152843732558814,41.359762298488135]}},{"type":"Feature","properties":{"nom":"Jardins de Margarida Comas","districte":"Sant Martí","barri":"la Vila Olímpica del Poblenou","adreca":"C Llull"},"geometry":{"type":"Point","coordinates":[2.191460787027334,41.3923548800096]}},{"type":"Feature","properties":{"nom":"Jardins Caterina Albert","districte":"Gràcia","barri":"el Camp d'en Grassot i Gràcia Nova","adreca":"Rosselló"},"geometry":{"type":"Point","coordinates":[2.170572319182133,41.40342763386252]}},{"type":"Feature","properties":{"nom":"Jardí Petra Kelly","districte":"Sants-Montjuïc","barri":"el Poble-sec","adreca":"C Doctor Font i Quer"},"geometry":{"type":"Point","coordinates":[2.1612599936774197,41.366423867792854]}},{"type":"Feature","properties":{"nom":"Jardins Jaume Huguet","districte":"Sant Martí","barri":"el Besòs i el Maresme","adreca":"Pl Jaume Huguet"},"geometry":{"type":"Point","coordinates":[2.2121733489011537,41.41740022783761]}},{"type":"Feature","properties":{"nom":"Jardins de Jacint Verdaguer","districte":"Sants-Montjuïc","barri":"el Poble-sec","adreca":"Av Miramar"},"geometry":{"type":"Point","coordinates":[2.1630513619866973,41.36885056534847]}},{"type":"Feature","properties":{"nom":"Jardí de Cristina Fernández Pereira","districte":"Eixample","barri":"Sant Antoni","adreca":"Carrer del Comte d'Urgell"},"geometry":{"type":"Point","coordinates":[2.160358651511553,41.38063710862745]}},{"type":"Feature","properties":{"nom":"Jardins de Miquel Martí i Pol","districte":"Sant Martí","barri":"el Parc i la Llacuna del Poblenou","adreca":"C Llacuna"},"geometry":{"type":"Point","coordinates":[2.1949132863342933,41.40387167479853]}},{"type":"Feature","properties":{"nom":"Jardins Interior d'Illa de Montserrat Figueras","districte":"Eixample","barri":"l'Antiga Esquerra de l'Eixample","adreca":"Carrer de Còrsega"},"geometry":{"type":"Point","coordinates":[2.1509795641937965,41.390385228782456]}},{"type":"Feature","properties":{"nom":"Jardins Interior d'Illa d'Helena Maseras","districte":"Eixample","barri":"l'Antiga Esquerra de l'Eixample","adreca":"Carrer del Rosselló"},"geometry":{"type":"Point","coordinates":[2.1533107565639185,41.39042902342673]}},{"type":"Feature","properties":{"nom":"Parc Antoni Santiburcio","districte":"Sant Andreu","barri":"Sant Andreu","adreca":"C Gran de Sant Andreu"},"geometry":{"type":"Point","coordinates":[2.188638562006768,41.444421063133845]}},{"type":"Feature","properties":{"nom":"Parc de Carles I","districte":"Sant Martí","barri":"la Vila Olímpica del Poblenou","adreca":"Av Icària"},"geometry":{"type":"Point","coordinates":[2.193466781947299,41.3889993175699]}},{"type":"Feature","properties":{"nom":"Parc de les Rieres d'Horta","districte":"Horta-Guinardó","barri":"la Clota","adreca":"Av Estatut de Catalunya"},"geometry":{"type":"Point","coordinates":[2.154259435001784,41.43107919974659]}},{"type":"Feature","properties":{"nom":"Jardins de la Creu Casas","districte":"Sant Martí","barri":"la Vila Olímpica del Poblenou","adreca":"Carrer de Pamplona"},"geometry":{"type":"Point","coordinates":[2.1944982957894417,41.394220661461055]}},{"type":"Feature","properties":{"nom":"Jardins d'Alícia de Larrocha","districte":"Sant Martí","barri":"la Vila Olímpica del Poblenou","adreca":"Carrer d'Àvila"},"geometry":{"type":"Point","coordinates":[2.196823493905987,41.39574486246493]}},{"type":"Feature","properties":{"nom":"Jardins de Remedios Varo","districte":"Sant Martí","barri":"Diagonal Mar i el Front Marítim del Poblenou","adreca":"Carrer dels Pellaires"},"geometry":{"type":"Point","coordinates":[2.209957203592256,41.40386703390893]}},{"type":"Feature","properties":{"nom":"Jardins Interior d'Illa Carretera Antiga d'Horta","districte":"Eixample","barri":"el Fort Pienc","adreca":"Carretera Antiga d'Horta"},"geometry":{"type":"Point","coordinates":[2.1802251621629414,41.393871248178975]}},{"type":"Feature","properties":{"nom":"Jardins dels Horts de Sant Pau","districte":"Ciutat Vella","barri":"el Raval","adreca":"Tàpies"},"geometry":{"type":"Point","coordinates":[2.1702808171636128,41.37631144514348]}},{"type":"Feature","properties":{"nom":"Jardins Constança d'Aragó","districte":"Eixample","barri":"la Dreta de l'Eixample","adreca":"Carrer de Roger de Flor"},"geometry":{"type":"Point","coordinates":[2.172745125885269,41.39889739448143]}},{"type":"Feature","properties":{"nom":"Jardins de Can Castelló","districte":"Sarrià-Sant Gervasi","barri":"Sant Gervasi - Galvany","adreca":"Carrer de Freixa"},"geometry":{"type":"Point","coordinates":[2.140179532716965,41.39904051559378]}},{"type":"Feature","properties":{"nom":"Zoo de Barcelona","districte":"Ciutat Vella","barri":"Sant Pere, Santa Caterina i la Ribera","adreca":"Parc Ciutadella"},"geometry":{"type":"Point","coordinates":[2.1871870138081793,41.386153673583415]}},{"type":"Feature","properties":{"nom":"Parc de la Unitat","districte":"Horta-Guinardó","barri":"Horta","adreca":"C Lloret de Mar"},"geometry":{"type":"Point","coordinates":[2.1578240406820526,41.43630327476819]}},{"type":"Feature","properties":{"nom":"La Font de la Budellera *Parc Metropolità","districte":"Sarrià-Sant Gervasi","barri":"Vallvidrera, el Tibidabo i les Planes","adreca":"Gabriel Ferrater"},"geometry":{"type":"Point","coordinates":[2.1086342209204902,41.41524382456094]}},{"type":"Feature","properties":{"nom":"Jardins Casa Bloc","districte":"Sant Andreu","barri":"Sant Andreu","adreca":"Valentí Iglésias"},"geometry":{"type":"Point","coordinates":[2.189716845737701,41.44124821570757]}},{"type":"Feature","properties":{"nom":"Jardins Clara Campoamor","districte":"Les Corts","barri":"les Corts","adreca":"Av Diagonal"},"geometry":{"type":"Point","coordinates":[2.128782316455014,41.38826987549862]}},{"type":"Feature","properties":{"nom":"Parc de la Creueta del Coll","districte":"Gràcia","barri":"el Coll","adreca":"Pg Mare de Déu del Coll"},"geometry":{"type":"Point","coordinates":[2.1462520569914068,41.419264262411424]}},{"type":"Feature","properties":{"nom":"Jardins de Dolors Canals i Farriols","districte":"Sant Martí","barri":"el Besòs i el Maresme","adreca":"C Pere Moragues"},"geometry":{"type":"Point","coordinates":[2.2156580187174053,41.41722742418654]}},{"type":"Feature","properties":{"nom":"Parc Carmel","districte":"Horta-Guinardó","barri":"el Carmel","adreca":"Ctra Carmel"},"geometry":{"type":"Point","coordinates":[2.155269268607678,41.41516676215983]}},{"type":"Feature","properties":{"nom":"Jardí dels Tarongers","districte":"Les Corts","barri":"Pedralbes","adreca":"C Rábida"},"geometry":{"type":"Point","coordinates":[2.1072570259147585,41.396311253391424]}},{"type":"Feature","properties":{"nom":"Jardí Botànic de Barcelona","districte":"Sants-Montjuïc","barri":"el Poble-sec","adreca":"Carrer del Doctor Font i Quer"},"geometry":{"type":"Point","coordinates":[2.1568468331568917,41.362685495322765]}},{"type":"Feature","properties":{"nom":"Jardins Cal Sèbio","districte":"Sants-Montjuïc","barri":"la Marina del Prat Vermell","adreca":"Foc"},"geometry":{"type":"Point","coordinates":[2.1421295392287054,41.35813057147215]}},{"type":"Feature","properties":{"nom":"Parc Can Ponsic","districte":"Sarrià-Sant Gervasi","barri":"Sarrià","adreca":"Enric Giménez"},"geometry":{"type":"Point","coordinates":[2.1194602767606807,41.396041358939556]}},{"type":"Feature","properties":{"nom":"Jardins del Palau Robert","districte":"Eixample","barri":"la Dreta de l'Eixample","adreca":"Passeig de Gràcia"},"geometry":{"type":"Point","coordinates":[2.159538941393651,41.396131607667456]}},{"type":"Feature","properties":{"nom":"Jardins Interior d'Illa de Sebastià Gasch","districte":"Eixample","barri":"la Nova Esquerra de l'Eixample","adreca":"Carrer de Rocafort"},"geometry":{"type":"Point","coordinates":[2.1533729159452237,41.37914804834278]}},{"type":"Feature","properties":{"nom":"Parc de l'Estació del Nord","districte":"Eixample","barri":"el Fort Pienc","adreca":"Carrer de Nàpols"},"geometry":{"type":"Point","coordinates":[2.1839578397165673,41.39367157911195]}},{"type":"Feature","properties":{"nom":"Parc de la Barceloneta","districte":"Ciutat Vella","barri":"la Barceloneta","adreca":"Passeig Marítim de la Barceloneta - Oriol Bohigas"},"geometry":{"type":"Point","coordinates":[2.193838416918405,41.38205501687279]}},{"type":"Feature","properties":{"nom":"Jardins de Teresa de Calcuta","districte":"Sant Martí","barri":"el Poblenou","adreca":"Camí Antic de València"},"geometry":{"type":"Point","coordinates":[2.201661451325657,41.40633543755732]}},{"type":"Feature","properties":{"nom":"Jardins Illa Pamplona","districte":"Sant Martí","barri":"el Parc i la Llacuna del Poblenou","adreca":"Carrer de Pamplona"},"geometry":{"type":"Point","coordinates":[2.189695240156673,41.398066414069156]}},{"type":"Feature","properties":{"nom":"Jardins de la Biblioteca Clara","districte":"Sarrià-Sant Gervasi","barri":"les Tres Torres","adreca":"Carrer del Doctor Carulla"},"geometry":{"type":"Point","coordinates":[2.129453048650315,41.39990895350873]}},{"type":"Feature","properties":{"nom":"Jardins de la Plaça Manuel Torrente","districte":"Gràcia","barri":"la Vila de Gràcia","adreca":"Carrer de l'Alzina"},"geometry":{"type":"Point","coordinates":[2.1567855267692817,41.40611564569828]}},{"type":"Feature","properties":{"nom":"Jardins de l'Illa Arimon","districte":"Sarrià-Sant Gervasi","barri":"Sant Gervasi - la Bonanova","adreca":"Carrer d'Arimon"},"geometry":{"type":"Point","coordinates":[2.1373375480180576,41.40471566721626]}},{"type":"Feature","properties":{"nom":"Jardins del Camp de Sarrià","districte":"Sarrià-Sant Gervasi","barri":"les Tres Torres","adreca":"Ptge Ricard Zamora"},"geometry":{"type":"Point","coordinates":[2.1333917229930712,41.39329452670943]}},{"type":"Feature","properties":{"nom":"Jardins de la Plaça Gaudi","districte":"Eixample","barri":"la Sagrada Família","adreca":"Pl Gaudí"},"geometry":{"type":"Point","coordinates":[2.1755311321584228,41.4050563057242]}},{"type":"Feature","properties":{"nom":"Jardins de Martin Luter","districte":"Sarrià-Sant Gervasi","barri":"Sant Gervasi - la Bonanova","adreca":"Ptge Maluquer"},"geometry":{"type":"Point","coordinates":[2.1360044594209735,41.40960311452634]}},{"type":"Feature","properties":{"nom":"Parc del Castell de l'Oreneta","districte":"Sarrià-Sant Gervasi","barri":"Sarrià","adreca":"C Montevideo"},"geometry":{"type":"Point","coordinates":[2.112199777559347,41.39940218424315]}},{"type":"Feature","properties":{"nom":"Jardins de Màlaga","districte":"Sants-Montjuïc","barri":"Sants","adreca":"Robrenyo"},"geometry":{"type":"Point","coordinates":[2.14064642439631,41.38307311248152]}},{"type":"Feature","properties":{"nom":"Turó Park - Parc del Poeta Eduard Marquina","districte":"Sarrià-Sant Gervasi","barri":"Sant Gervasi - Galvany","adreca":"Av Pau Casals"},"geometry":{"type":"Point","coordinates":[2.1419158924657906,41.39410523623182]}},{"type":"Feature","properties":{"nom":"Jardins Elisard Sala - Interior","districte":"Sants-Montjuïc","barri":"Sants","adreca":"C Robrenyo"},"geometry":{"type":"Point","coordinates":[2.138755877693606,41.38204129193082]}},{"type":"Feature","properties":{"nom":"Jardins de Rubió i Lluch","districte":"Ciutat Vella","barri":"el Raval","adreca":"Hospital"},"geometry":{"type":"Point","coordinates":[2.1698114685903156,41.38108881941955]}},{"type":"Feature","properties":{"nom":"Jardíns Interior d'Illa Assumpció Català","districte":"Eixample","barri":"la Nova Esquerra de l'Eixample","adreca":"Carrer del Comte Borrell"},"geometry":{"type":"Point","coordinates":[2.1460345774287792,41.389335688280276]}},{"type":"Feature","properties":{"nom":"Jardins Interior d'Illa de Maria Manonelles","districte":"Eixample","barri":"Sant Antoni","adreca":"Carrer de Calàbria"},"geometry":{"type":"Point","coordinates":[2.1592652707595708,41.376675184893614]}},{"type":"Feature","properties":{"nom":"Jardinets de Salvador Espriu","districte":"Gràcia","barri":"la Vila de Gràcia","adreca":"Passeig de Gràcia"},"geometry":{"type":"Point","coordinates":[2.1580613330328386,41.397680327870454]}},{"type":"Feature","properties":{"nom":"Jardí Botànic Històric","districte":"Sants-Montjuïc","barri":"el Poble-sec","adreca":"Avinguda dels Montanyans"},"geometry":{"type":"Point","coordinates":[2.1523101998969025,41.366998796852336]}},{"type":"Feature","properties":{"nom":"Jardins de Celestina Vigneaux","districte":"Sants-Montjuïc","barri":"la Bordeta","adreca":"C Cuyàs"},"geometry":{"type":"Point","coordinates":[2.141207701348071,41.37012820294741]}},{"type":"Feature","properties":{"nom":"Parc del Mirador del Poble-sec","districte":"Sants-Montjuïc","barri":"el Poble-sec","adreca":"Passeig de Montjuïc"},"geometry":{"type":"Point","coordinates":[2.1701826605872294,41.371920689797676]}},{"type":"Feature","properties":{"nom":"Jardins de les Tres Xemeneies","districte":"Sants-Montjuïc","barri":"el Poble-sec","adreca":"Av Paral.lel"},"geometry":{"type":"Point","coordinates":[2.172430025242432,41.37448327029571]}},{"type":"Feature","properties":{"nom":"Parc de la Font Florida","districte":"Sants-Montjuïc","barri":"la Font de la Guatlla","adreca":"G.V. Corts Catalanes"},"geometry":{"type":"Point","coordinates":[2.14105045396157,41.368634514222805]}},{"type":"Feature","properties":{"nom":"Jardins de Baró de Viver","districte":"Sant Andreu","barri":"Baró de Viver","adreca":"Campins"},"geometry":{"type":"Point","coordinates":[2.19871115503559,41.44731312584859]}},{"type":"Feature","properties":{"nom":"Jardins Doctors Dolsa","districte":"Les Corts","barri":"les Corts","adreca":"Fígols"},"geometry":{"type":"Point","coordinates":[2.129170503906372,41.380803694745275]}},{"type":"Feature","properties":{"nom":"Jardins de Jaume Perich","districte":"Eixample","barri":"la Dreta de l'Eixample","adreca":"Gran Via de les Corts Catalanes"},"geometry":{"type":"Point","coordinates":[2.173552696712672,41.39372211779633]}},{"type":"Feature","properties":{"nom":"Jardí de Maria Teresa Vernet i Real","districte":"Les Corts","barri":"la Maternitat i Sant Ramon","adreca":"C Pintor Tapiró"},"geometry":{"type":"Point","coordinates":[2.119004804837095,41.3777061847001]}},{"type":"Feature","properties":{"nom":"Jardins Áurea Cuadrado","districte":"Les Corts","barri":"la Maternitat i Sant Ramon","adreca":"C General Batet"},"geometry":{"type":"Point","coordinates":[2.108768648660978,41.37852227053537]}},{"type":"Feature","properties":{"nom":"Jardins Manuel J. Arnalot","districte":"Horta-Guinardó","barri":"Sant Genís dels Agudells","adreca":"Natzaret"},"geometry":{"type":"Point","coordinates":[2.136566647910745,41.42584651716662]}},{"type":"Feature","properties":{"nom":"Jardins Montbau","districte":"Horta-Guinardó","barri":"Montbau","adreca":"C Poesia"},"geometry":{"type":"Point","coordinates":[2.142646475130079,41.43250966110126]}},{"type":"Feature","properties":{"nom":"Jardins de Caba","districte":"Les Corts","barri":"les Corts","adreca":"Pl Caba"},"geometry":{"type":"Point","coordinates":[2.141747531666055,41.385688059832844]}},{"type":"Feature","properties":{"nom":"Jardins del Clot de la Mel","districte":"Sant Martí","barri":"el Clot","adreca":"C Lope de Vega"},"geometry":{"type":"Point","coordinates":[2.1942807632698473,41.41162448134339]}},{"type":"Feature","properties":{"nom":"Jardí Històric","districte":"Sarrià-Sant Gervasi","barri":"Sant Gervasi - Galvany","adreca":"C Muntaner"},"geometry":{"type":"Point","coordinates":[2.1468892962598556,41.39627461437971]}},{"type":"Feature","properties":{"nom":"Parc de la Font del Racó","districte":"Sarrià-Sant Gervasi","barri":"Sant Gervasi - la Bonanova","adreca":"Av Tibidabo"},"geometry":{"type":"Point","coordinates":[2.130839745769486,41.41609393601731]}},{"type":"Feature","properties":{"nom":"Jardins Vila Arrufat","districte":"Sarrià-Sant Gervasi","barri":"les Tres Torres","adreca":"Ganduxer"},"geometry":{"type":"Point","coordinates":[2.1335788480441584,41.399968634043724]}},{"type":"Feature","properties":{"nom":"Jardins del Doctor Robert","districte":"Eixample","barri":"la Dreta de l'Eixample","adreca":"Pl Tetuan"},"geometry":{"type":"Point","coordinates":[2.1754773789935244,41.394513419470094]}},{"type":"Feature","properties":{"nom":"Jardins de Ca n'Altimira","districte":"Sarrià-Sant Gervasi","barri":"Sant Gervasi - la Bonanova","adreca":"Maó"},"geometry":{"type":"Point","coordinates":[2.1314784393711608,41.403660833481105]}},{"type":"Feature","properties":{"nom":"Parc del Pla de Fornells","districte":"Nou Barris","barri":"les Roquetes","adreca":"C Nou Barris"},"geometry":{"type":"Point","coordinates":[2.1785979471098837,41.44818476886138]}},{"type":"Feature","properties":{"nom":"Jardins Interior d'Illa de Flora Tristan","districte":"Eixample","barri":"la Sagrada Família","adreca":"Carrer de Padilla"},"geometry":{"type":"Point","coordinates":[2.1797990174583877,41.40409793289094]}},{"type":"Feature","properties":{"nom":"Jardí de Joana Tomàs","districte":"Sant Martí","barri":"el Clot","adreca":"C València"},"geometry":{"type":"Point","coordinates":[2.1887155595871257,41.412218402872526]}},{"type":"Feature","properties":{"nom":"Jardins de Jaime Gil de Biedma","districte":"Sant Martí","barri":"Diagonal Mar i el Front Marítim del Poblenou","adreca":"Carrer d'Espronceda"},"geometry":{"type":"Point","coordinates":[2.209081556822592,41.401402084881234]}},{"type":"Feature","properties":{"nom":"Jardins Josep Goday i Casals","districte":"Les Corts","barri":"la Maternitat i Sant Ramon","adreca":"Carrer d'Emèrita Augusta"},"geometry":{"type":"Point","coordinates":[2.1262629609289165,41.378740454073025]}},{"type":"Feature","properties":{"nom":"Jardins de Sant Pau del Camp","districte":"Ciutat Vella","barri":"el Raval","adreca":"Sant Pau"},"geometry":{"type":"Point","coordinates":[2.16931451433491,41.37650077245051]}},{"type":"Feature","properties":{"nom":"Jardins Walter Benjamin","districte":"Sants-Montjuïc","barri":"el Poble-sec","adreca":"Pg Josep Carner"},"geometry":{"type":"Point","coordinates":[2.174862325367673,41.37287599278931]}},{"type":"Feature","properties":{"nom":"Jardins de Manuel Sacristán","districte":"Sant Martí","barri":"Diagonal Mar i el Front Marítim del Poblenou","adreca":"Carrer de Provençals"},"geometry":{"type":"Point","coordinates":[2.213355360398716,41.40360835888967]}},{"type":"Feature","properties":{"nom":"Jardins de la Mediterrània","districte":"Sants-Montjuïc","barri":"la Marina de Port","adreca":"Foneria"},"geometry":{"type":"Point","coordinates":[2.139615634878941,41.360236193911376]}},{"type":"Feature","properties":{"nom":"Jardins Jaume Planas i Alemany","districte":"Horta-Guinardó","barri":"el Carmel","adreca":"Llobregós"},"geometry":{"type":"Point","coordinates":[2.153308491000778,41.42263286964232]}},{"type":"Feature","properties":{"nom":"Jardins Teixonera","districte":"Horta-Guinardó","barri":"la Teixonera","adreca":"Arenys"},"geometry":{"type":"Point","coordinates":[2.1414074544650044,41.42219349572098]}},{"type":"Feature","properties":{"nom":"Interior d'Illa Jardins de Maria Baldó","districte":"Gràcia","barri":"Vallcarca i els Penitents","adreca":"Carrer de la Mare de Déu dels Reis"},"geometry":{"type":"Point","coordinates":[2.145944208997487,41.41325448470696]}},{"type":"Feature","properties":{"nom":"Jardins Andreu Nin","districte":"Nou Barris","barri":"Porta","adreca":"C Pintor Alsamora"},"geometry":{"type":"Point","coordinates":[2.1807441254908606,41.434302563565325]}},{"type":"Feature","properties":{"nom":"Jardins Frederica Montseny","districte":"Horta-Guinardó","barri":"el Guinardó","adreca":"Antic del Guinardó"},"geometry":{"type":"Point","coordinates":[2.174866842344611,41.418061038351816]}},{"type":"Feature","properties":{"nom":"Jardins de la Campana de La Maquinista","districte":"Sant Andreu","barri":"el Bon Pastor","adreca":"Ferran Junoy"},"geometry":{"type":"Point","coordinates":[2.1959361294253372,41.43809175061317]}},{"type":"Feature","properties":{"nom":"Jardins del Viver de Can Borni","districte":"Horta-Guinardó","barri":"Sant Genís dels Agudells","adreca":"Camí de Can Borni"},"geometry":{"type":"Point","coordinates":[2.1224523282306436,41.422886630339505]}},{"type":"Feature","properties":{"nom":"Jardins d'Interior d'Illa de Gaietà Renom","districte":"Les Corts","barri":"les Corts","adreca":"C Montnegre"},"geometry":{"type":"Point","coordinates":[2.139411091038567,41.388228506917976]}},{"type":"Feature","properties":{"nom":"Jardins Interior d'Illa de Tres Tombs","districte":"Eixample","barri":"Sant Antoni","adreca":"Carrer de Manso"},"geometry":{"type":"Point","coordinates":[2.160351170118098,41.37637095451236]}},{"type":"Feature","properties":{"nom":"Interior d'Illa Motor Repris","districte":"Eixample","barri":"el Fort Pienc","adreca":"Gran Via de les Corts Catalanes"},"geometry":{"type":"Point","coordinates":[2.182758231950628,41.40064539572248]}},{"type":"Feature","properties":{"nom":"Jardins de Joan Fuster i Ortells","districte":"Sant Martí","barri":"Diagonal Mar i el Front Marítim del Poblenou","adreca":"Carrer de Bac de Roda"},"geometry":{"type":"Point","coordinates":[2.2106231077244987,41.40232349200489]}},{"type":"Feature","properties":{"nom":"Àrea Panoràmica (Camí del Cel)","districte":"Sarrià-Sant Gervasi","barri":"Vallvidrera, el Tibidabo i les Planes","adreca":"Pl Tibidabo"},"geometry":{"type":"Point","coordinates":[2.1197957867323467,41.42179367685009]}},{"type":"Feature","properties":{"nom":"Jardins del Doctor Pla i Armengol","districte":"Horta-Guinardó","barri":"el Guinardó","adreca":"Av Mare de Déu de Montserrat"},"geometry":{"type":"Point","coordinates":[2.1699197153982093,41.416006230644655]}},{"type":"Feature","properties":{"nom":"Jardins de Beatriu de Provença","districte":"Eixample","barri":"la Sagrada Família","adreca":"Carrer de Nàpols"},"geometry":{"type":"Point","coordinates":[2.1716724323305296,41.40179726989525]}},{"type":"Feature","properties":{"nom":"Jardins d'Enriqueta Sèculi","districte":"Eixample","barri":"la Sagrada Família","adreca":"Passatge de Simó"},"geometry":{"type":"Point","coordinates":[2.1733171427256734,41.40455109461742]}},{"type":"Feature","properties":{"nom":"Interior d'Illa de les Treballadores de la Numax","districte":"Eixample","barri":"la Sagrada Família","adreca":"Carrer del Rosselló"},"geometry":{"type":"Point","coordinates":[2.171626934226467,41.40392085729826]}},{"type":"Feature","properties":{"nom":"Interior d'Illa Jardins de Montserrat Minobis","districte":"Eixample","barri":"la Dreta de l'Eixample","adreca":"Carrer de Casp"},"geometry":{"type":"Point","coordinates":[2.1697100674592678,41.38936004235012]}},{"type":"Feature","properties":{"nom":"Parc Torrent Maduixer","districte":"Sarrià-Sant Gervasi","barri":"Sant Gervasi - la Bonanova","adreca":"C Josep Garí"},"geometry":{"type":"Point","coordinates":[2.1353909998606846,41.415769691707396]}},{"type":"Feature","properties":{"nom":"Jardins d'Ada Byron","districte":"Sant Martí","barri":"el Poblenou","adreca":"Av Diagonal"},"geometry":{"type":"Point","coordinates":[2.1943004594477817,41.40491751304483]}},{"type":"Feature","properties":{"nom":"Espai Lúdic-Esportiu de la Campa","districte":"Horta-Guinardó","barri":"la Vall d'Hebron","adreca":"C Granja Vella"},"geometry":{"type":"Point","coordinates":[2.147575619309494,41.42660537548248]}},{"type":"Feature","properties":{"nom":"Jardins de Ca l'Aranyó","districte":"Sant Martí","barri":"el Parc i la Llacuna del Poblenou","adreca":"C Ciutat de Granada"},"geometry":{"type":"Point","coordinates":[2.1922204602052937,41.40301853453876]}},{"type":"Feature","properties":{"nom":"Jardins de la Rambla de Sants","districte":"Sants-Montjuïc","barri":"Sants","adreca":"Carrer d'Antoni de Capmany"},"geometry":{"type":"Point","coordinates":[2.1324980431422143,41.37242263913515]}},{"type":"Feature","properties":{"nom":"Jardins de Mercè Rodoreda","districte":"Sarrià-Sant Gervasi","barri":"el Putxet i el Farró","adreca":"Av República Argentina"},"geometry":{"type":"Point","coordinates":[2.143988466465584,41.41123159253481]}},{"type":"Feature","properties":{"nom":"Parc d'Atraccions del Tibidabo","districte":"Sarrià-Sant Gervasi","barri":"Vallvidrera, el Tibidabo i les Planes","adreca":"Plaça del Tibidabo"},"geometry":{"type":"Point","coordinates":[2.118740285636823,41.42161843553102]}},{"type":"Feature","properties":{"nom":"Jardins de la Font dels Ocellets","districte":"Les Corts","barri":"Pedralbes","adreca":"Jiménez i Iglesias"},"geometry":{"type":"Point","coordinates":[2.1225533493940674,41.38914624270509]}},{"type":"Feature","properties":{"nom":"Parc de Cervantes","districte":"Les Corts","barri":"Pedralbes","adreca":"Av Diagonal"},"geometry":{"type":"Point","coordinates":[2.1094394046493576,41.38456852873157]}},{"type":"Feature","properties":{"nom":"Jardins la Sedeta","districte":"Gràcia","barri":"el Camp d'en Grassot i Gràcia Nova","adreca":"Sicília"},"geometry":{"type":"Point","coordinates":[2.167687591797475,41.405576512012246]}},{"type":"Feature","properties":{"nom":"Parc de la Pegaso","districte":"Sant Andreu","barri":"la Sagrera","adreca":"C Sagrera"},"geometry":{"type":"Point","coordinates":[2.190739286407059,41.42688804853377]}},{"type":"Feature","properties":{"nom":"Jardins Can Mantega","districte":"Sants-Montjuïc","barri":"Sants","adreca":"Joan Güell"},"geometry":{"type":"Point","coordinates":[2.1334122098021124,41.378379079024555]}},{"type":"Feature","properties":{"nom":"Jardins Joaquim Ruyra","districte":"Les Corts","barri":"les Corts","adreca":"Entença"},"geometry":{"type":"Point","coordinates":[2.138376389148415,41.390389369333256]}},{"type":"Feature","properties":{"nom":"Parc de l'Espanya Industrial","districte":"Sants-Montjuïc","barri":"Sants","adreca":"Carrer de Muntadas"},"geometry":{"type":"Point","coordinates":[2.1398740063223722,41.37653564822331]}},{"type":"Feature","properties":{"nom":"Jardins de Magalí","districte":"Les Corts","barri":"les Corts","adreca":"C Vallespir"},"geometry":{"type":"Point","coordinates":[2.1335326462367803,41.38491336528375]}},{"type":"Feature","properties":{"nom":"Jardins","districte":"Horta-Guinardó","barri":"Montbau","adreca":"Pg Vall d'Hebron"},"geometry":{"type":"Point","coordinates":[2.1413388044305384,41.43651987559525]}},{"type":"Feature","properties":{"nom":"Parc de la Ciutadella","districte":"Ciutat Vella","barri":"Sant Pere, Santa Caterina i la Ribera","adreca":"Passeig de Picasso"},"geometry":{"type":"Point","coordinates":[2.185381778970792,41.38633657544665]}},{"type":"Feature","properties":{"nom":"Jardins de Ramon Margalef i López","districte":"Sants-Montjuïc","barri":"el Poble-sec","adreca":"Av Estadi"},"geometry":{"type":"Point","coordinates":[2.1529654736615242,41.36609351846864]}},{"type":"Feature","properties":{"nom":"Jardins de Can Sentmenat","districte":"Sarrià-Sant Gervasi","barri":"Sarrià","adreca":"C Can Caralleu"},"geometry":{"type":"Point","coordinates":[2.115102292721839,41.40262028359711]}},{"type":"Feature","properties":{"nom":"Park Güell","districte":"Gràcia","barri":"la Salut","adreca":"Carrer d'Olot"},"geometry":{"type":"Point","coordinates":[2.1523549505739523,41.41281810185847]}},{"type":"Feature","properties":{"nom":"Parc del Laberint d'Horta","districte":"Horta-Guinardó","barri":"Montbau","adreca":"Passeig dels Castanyers"},"geometry":{"type":"Point","coordinates":[2.1475613087947547,41.43795704876439]}},{"type":"Feature","properties":{"nom":"Parc del Guinardó","districte":"Horta-Guinardó","barri":"el Guinardó","adreca":"Garriga i Roca"},"geometry":{"type":"Point","coordinates":[2.169613897166294,41.41948943678852]}},{"type":"Feature","properties":{"nom":"Parc de les Corts","districte":"Les Corts","barri":"les Corts","adreca":"Nicaragua"},"geometry":{"type":"Point","coordinates":[2.1366261847980823,41.38684157051108]}},{"type":"Feature","properties":{"nom":"Parc del Turó de la Peira","districte":"Nou Barris","barri":"el Turó de la Peira","adreca":"Passeig de Fabra i Puig"},"geometry":{"type":"Point","coordinates":[2.1634471242007627,41.43346223343624]}},{"type":"Feature","properties":{"nom":"Jardins d'Atlanta","districte":"Sant Martí","barri":"la Vila Olímpica del Poblenou","adreca":"Marina"},"geometry":{"type":"Point","coordinates":[2.1947344565530855,41.3879985899126]}},{"type":"Feature","properties":{"nom":"Jardins del Port Romà","districte":"Sants-Montjuïc","barri":"la Marina de Port","adreca":"Foc"},"geometry":{"type":"Point","coordinates":[2.144808762527653,41.35939523618376]}},{"type":"Feature","properties":{"nom":"Jardins de la Plaça Carmé Simó","districte":"Ciutat Vella","barri":"el Barri Gòtic","adreca":"C Sots-tinent Navarro"},"geometry":{"type":"Point","coordinates":[2.179464430011531,41.38300055778058]}},{"type":"Feature","properties":{"nom":"Jardins Josep Amat","districte":"Sarrià-Sant Gervasi","barri":"el Putxet i el Farró","adreca":"Rda General Mitre"},"geometry":{"type":"Point","coordinates":[2.14340824232278,41.40554846163865]}},{"type":"Feature","properties":{"nom":"Jardins de Joan Vinyoli","districte":"Sarrià-Sant Gervasi","barri":"Sarrià","adreca":"Pg Sant Joan Bosco"},"geometry":{"type":"Point","coordinates":[2.128687898396678,41.39345626377472]}},{"type":"Feature","properties":{"nom":"Jardins de Can Senillosa","districte":"Sarrià-Sant Gervasi","barri":"Sarrià","adreca":"Fontcoberta"},"geometry":{"type":"Point","coordinates":[2.1241174089578516,41.39479511770534]}},{"type":"Feature","properties":{"nom":"Jardins del Teatre Grec","districte":"Sants-Montjuïc","barri":"el Poble-sec","adreca":"Pg Santa Madrona"},"geometry":{"type":"Point","coordinates":[2.158621128519657,41.37014353208927]}},{"type":"Feature","properties":{"nom":"Parc dels Auditoris","districte":"Sant Martí","barri":"el Besòs i el Maresme","adreca":"Pl Fòrum"},"geometry":{"type":"Point","coordinates":[2.2254324620547092,41.40918252937949]}},{"type":"Feature","properties":{"nom":"Jardí del Reg","districte":"Sant Andreu","barri":"Sant Andreu","adreca":"C Sant Adrià"},"geometry":{"type":"Point","coordinates":[2.1932928240604213,41.43483282206298]}},{"type":"Feature","properties":{"nom":"Jardins de Josep Maria Sostres","districte":"Sant Martí","barri":"Diagonal Mar i el Front Marítim del Poblenou","adreca":"Carrer de la Selva de Mar"},"geometry":{"type":"Point","coordinates":[2.213498149079968,41.404717048212895]}},{"type":"Feature","properties":{"nom":"Parc del Centre del Poblenou","districte":"Sant Martí","barri":"Provençals del Poblenou","adreca":"Av Diagonal"},"geometry":{"type":"Point","coordinates":[2.1997573736435094,41.40679356695045]}},{"type":"Feature","properties":{"nom":"Jardins Marià Manent","districte":"Sarrià-Sant Gervasi","barri":"el Putxet i el Farró","adreca":"Espinoi"},"geometry":{"type":"Point","coordinates":[2.1407880011566567,41.41032319278719]}},{"type":"Feature","properties":{"nom":"Jardins Sant Joan de Déu","districte":"Les Corts","barri":"les Corts","adreca":"Carrer de Constança"},"geometry":{"type":"Point","coordinates":[2.135777274514516,41.38920000343089]}},{"type":"Feature","properties":{"nom":"Jardí","districte":"Horta-Guinardó","barri":"la Clota","adreca":"Av Cardenal Vidal Barraquer"},"geometry":{"type":"Point","coordinates":[2.15131477992075,41.42969190027591]}},{"type":"Feature","properties":{"nom":"Parc de les Aigües","districte":"Horta-Guinardó","barri":"el Baix Guinardó","adreca":"Pl Alfons el Savi"},"geometry":{"type":"Point","coordinates":[2.1654810232921857,41.41357708464317]}},{"type":"Feature","properties":{"nom":"Parc de la Guineueta","districte":"Nou Barris","barri":"la Guineueta","adreca":"Plaça de la República"},"geometry":{"type":"Point","coordinates":[2.1744888744706907,41.43904973751512]}},{"type":"Feature","properties":{"nom":"Jardí d'Espargiment de Cendres","districte":"Sants-Montjuïc","barri":"el Poble-sec","adreca":"C Mare de Déu de Port"},"geometry":{"type":"Point","coordinates":[2.149011845799688,41.35439614126615]}},{"type":"Feature","properties":{"nom":"Jardins de Joan Maragall - Palauet Albéniz","districte":"Sants-Montjuïc","barri":"el Poble-sec","adreca":"Av Estadi"},"geometry":{"type":"Point","coordinates":[2.1562276622830514,41.366509146888276]}},{"type":"Feature","properties":{"nom":"Jardins Interior d'Illa d'Emma de Barcelona","districte":"Eixample","barri":"la Nova Esquerra de l'Eixample","adreca":"Carrer del Comte Borrell"},"geometry":{"type":"Point","coordinates":[2.15552474177204,41.38263747374256]}},{"type":"Feature","properties":{"nom":"Jardins Amargós","districte":"Sants-Montjuïc","barri":"el Poble-sec","adreca":"Pg Santa Madrona"},"geometry":{"type":"Point","coordinates":[2.158482875531215,41.36812384413011]}},{"type":"Feature","properties":{"nom":"Jardins de Llucmajor","districte":"Nou Barris","barri":"la Guineueta","adreca":"Pl de la República"},"geometry":{"type":"Point","coordinates":[2.1744888744706907,41.43904973751512]}},{"type":"Feature","properties":{"nom":"Jardí de Joan Llarch","districte":"Sarrià-Sant Gervasi","barri":"Sarrià","adreca":"C Mendel"},"geometry":{"type":"Point","coordinates":[2.1199379356081067,41.397576792774]}},{"type":"Feature","properties":{"nom":"Jardins de Xavier Benguerel","districte":"Sant Martí","barri":"el Poblenou","adreca":"C Marià Aguiló"},"geometry":{"type":"Point","coordinates":[2.199436307435502,41.40379957835931]}},{"type":"Feature","properties":{"nom":"Parc dels Esculls","districte":"Sant Martí","barri":"el Besòs i el Maresme","adreca":"Pl Fòrum"},"geometry":{"type":"Point","coordinates":[2.227513379115536,41.40879244777238]}},{"type":"Feature","properties":{"nom":"Jardins de Tete Montoliu","districte":"Eixample","barri":"Sant Antoni","adreca":"Carrer de Sepúlveda"},"geometry":{"type":"Point","coordinates":[2.1571451648239623,41.37904847535037]}},{"type":"Feature","properties":{"nom":"Jardins del Rector Oliveras","districte":"Eixample","barri":"la Dreta de l'Eixample","adreca":"Passatge del Rector Oliveras"},"geometry":{"type":"Point","coordinates":[2.1678356444626248,41.39479752399747]}},{"type":"Feature","properties":{"nom":"Jardins Vidriera","districte":"Sants-Montjuïc","barri":"la Bordeta","adreca":"Gaiarre"},"geometry":{"type":"Point","coordinates":[2.1407821790178123,41.37274705563819]}},{"type":"Feature","properties":{"nom":"Jardins Pl. Sol de Baix","districte":"Les Corts","barri":"les Corts","adreca":"Gerard Piera"},"geometry":{"type":"Point","coordinates":[2.1296659137585396,41.38271945689916]}},{"type":"Feature","properties":{"nom":"Jardins Can Cuiàs","districte":"Les Corts","barri":"les Corts","adreca":"Marquès de Sentmenat"},"geometry":{"type":"Point","coordinates":[2.135813646243058,41.385038122169874]}},{"type":"Feature","properties":{"nom":"Parc de Sant Martí","districte":"Sant Martí","barri":"Sant Martí de Provençals","adreca":"C Menorca"},"geometry":{"type":"Point","coordinates":[2.198051769477209,41.41989650584673]}},{"type":"Feature","properties":{"nom":"Jardins Hiroshima","districte":"Horta-Guinardó","barri":"el Baix Guinardó","adreca":"Camèlies"},"geometry":{"type":"Point","coordinates":[2.166586088461681,41.4136431206065]}},{"type":"Feature","properties":{"nom":"Parc del Clot","districte":"Sant Martí","barri":"el Clot","adreca":"Escultors Claperós"},"geometry":{"type":"Point","coordinates":[2.1900153665666733,41.40847228003916]}},{"type":"Feature","properties":{"nom":"Jardins d'Elisava","districte":"Sant Martí","barri":"el Parc i la Llacuna del Poblenou","adreca":"C Àvila"},"geometry":{"type":"Point","coordinates":[2.1887374394493406,41.40191375197916]}},{"type":"Feature","properties":{"nom":"Jardins d'Eduard Batiste Alentorn","districte":"Horta-Guinardó","barri":"el Carmel","adreca":"C Dante Alighieri"},"geometry":{"type":"Point","coordinates":[2.157447662343646,41.42769015831456]}},{"type":"Feature","properties":{"nom":"Jardins de Jaume Vicens Vives","districte":"Les Corts","barri":"la Maternitat i Sant Ramon","adreca":"Av Diagonal"},"geometry":{"type":"Point","coordinates":[2.123956896300959,41.387053996155295]}},{"type":"Feature","properties":{"nom":"Jardins Plaça de Can Fabra","districte":"Sant Andreu","barri":"Sant Andreu","adreca":"Carrer del Segre"},"geometry":{"type":"Point","coordinates":[2.191738858342075,41.434925914293984]}},{"type":"Feature","properties":{"nom":"Parc Metropolità Collserola","districte":"Sarrià-Sant Gervasi","barri":"Vallvidrera, el Tibidabo i les Planes","adreca":"Ctra Església"},"geometry":{"type":"Point","coordinates":[2.0995879296735516,41.42098586112135]}},{"type":"Feature","properties":{"nom":"L'Aquàrium de Barcelona - Aspro Parks","districte":"Ciutat Vella","barri":"el Barri Gòtic","adreca":"Moll Espanya"},"geometry":{"type":"Point","coordinates":[2.1843840154597025,41.37680536906014]}},{"type":"Feature","properties":{"nom":"Jardins de Joan Brossa","districte":"Sants-Montjuïc","barri":"el Poble-sec","adreca":"Plaça de Dante"},"geometry":{"type":"Point","coordinates":[2.1650128504069532,41.36867092135471]}},{"type":"Feature","properties":{"nom":"Jardins Laribal","districte":"Sants-Montjuïc","barri":"el Poble-sec","adreca":"Pg Santa Madrona"},"geometry":{"type":"Point","coordinates":[2.158482875531215,41.36812384413011]}},{"type":"Feature","properties":{"nom":"Jardins de Juan Ponce","districte":"Horta-Guinardó","barri":"el Carmel","adreca":"Ctra Carmel"},"geometry":{"type":"Point","coordinates":[2.1565777551335916,41.41813481606472]}},{"type":"Feature","properties":{"nom":"Jardins Interior d'Illa de Maria-Mercè Marçal","districte":"Eixample","barri":"la Nova Esquerra de l'Eixample","adreca":"Carrer de Provença"},"geometry":{"type":"Point","coordinates":[2.1495931040167817,41.386378210246036]}},{"type":"Feature","properties":{"nom":"Viver Municipal de Plantes Tres Pins","districte":"Sants-Montjuïc","barri":"el Poble-sec","adreca":"Av Miramar"},"geometry":{"type":"Point","coordinates":[2.160979651846159,41.36829695911561]}},{"type":"Feature","properties":{"nom":"Parc Esportiu de Can Dragó","districte":"Nou Barris","barri":"Porta","adreca":"C Rosselló i Porcel"},"geometry":{"type":"Point","coordinates":[2.183157005742885,41.436593069404815]}},{"type":"Feature","properties":{"nom":"Jardins de l'Arboreda - Interior","districte":"Sants-Montjuïc","barri":"la Marina de Port","adreca":"Carrer de la Mecànica"},"geometry":{"type":"Point","coordinates":[2.1380613376395097,41.35868827870441]}},{"type":"Feature","properties":{"nom":"Jardí dels Indians","districte":"Sant Andreu","barri":"el Congrés i els Indians","adreca":"C Jordi de Sant Jordi"},"geometry":{"type":"Point","coordinates":[2.1831290669497436,41.42211513121085]}},{"type":"Feature","properties":{"nom":"Parc de les Cascades","districte":"Ciutat Vella","barri":"la Barceloneta","adreca":"Avinguda del Litoral"},"geometry":{"type":"Point","coordinates":[2.1950946466204972,41.38631260802294]}},{"type":"Feature","properties":{"nom":"Jardins Can Feu","districte":"Les Corts","barri":"les Corts","adreca":"Flos i Calcat"},"geometry":{"type":"Point","coordinates":[2.1288904326716365,41.390323977616085]}},{"type":"Feature","properties":{"nom":"Jardins de Vil·la Cecília","districte":"Sarrià-Sant Gervasi","barri":"Sarrià","adreca":"Santa Amèlia"},"geometry":{"type":"Point","coordinates":[2.121963830470535,41.39374957203114]}},{"type":"Feature","properties":{"nom":"Jardins Ferran Soldevila","districte":"Eixample","barri":"l'Antiga Esquerra de l'Eixample","adreca":"G.V. Corts Catalanes"},"geometry":{"type":"Point","coordinates":[2.1640304973285196,41.3865770289631]}},{"type":"Feature","properties":{"nom":"Jardins Olga Sacharoff","districte":"Les Corts","barri":"les Corts","adreca":"Caravel.la la Niña"},"geometry":{"type":"Point","coordinates":[2.133690322091076,41.39063297052693]}},{"type":"Feature","properties":{"nom":"Jardins de Piscines i Esports","districte":"Sarrià-Sant Gervasi","barri":"Sant Gervasi - Galvany","adreca":"Carrer del Doctor Fleming"},"geometry":{"type":"Point","coordinates":[2.1356084071087156,41.39314134177889]}},{"type":"Feature","properties":{"nom":"Jardins Interior d'Illa Laura Albéniz","districte":"Eixample","barri":"la Dreta de l'Eixample","adreca":"Carrer de Pau Claris"},"geometry":{"type":"Point","coordinates":[2.162735015218643,41.39622434116736]}},{"type":"Feature","properties":{"nom":"Jardí Doctor Comas i Llaberia","districte":"Gràcia","barri":"Vallcarca i els Penitents","adreca":"Av Vallcarca"},"geometry":{"type":"Point","coordinates":[2.141848467458373,41.416930612365384]}},{"type":"Feature","properties":{"nom":"Jardins del Baluard","districte":"Ciutat Vella","barri":"el Raval","adreca":"Avinguda de les Drassanes"},"geometry":{"type":"Point","coordinates":[2.1760573876381613,41.375981756802304]}},{"type":"Feature","properties":{"nom":"Parc Central de Nou Barris","districte":"Nou Barris","barri":"la Guineueta","adreca":"Pl Major de Nou Barris"},"geometry":{"type":"Point","coordinates":[2.1712296246319656,41.4368445525108]}},{"type":"Feature","properties":{"nom":"Jardí d'Elies Ortiz","districte":"Sants-Montjuïc","barri":"la Marina de Port","adreca":"Pg Zona Franca"},"geometry":{"type":"Point","coordinates":[2.1431598087414914,41.3564820545708]}},{"type":"Feature","properties":{"nom":"Jardins Mestre Balcells","districte":"Gràcia","barri":"la Vila de Gràcia","adreca":"Carrer de Sant Salvador"},"geometry":{"type":"Point","coordinates":[2.15412689316291,41.40765541373202]}},{"type":"Feature","properties":{"nom":"Jardins Casa Sagnier","districte":"Sarrià-Sant Gervasi","barri":"Sant Gervasi - Galvany","adreca":"Carrer de Brusi"},"geometry":{"type":"Point","coordinates":[2.1445309541605844,41.40190748902283]}},{"type":"Feature","properties":{"nom":"Jardí Interior d'Illa del carrer Deià","districte":"Nou Barris","barri":"Porta","adreca":"C Deià"},"geometry":{"type":"Point","coordinates":[2.173545947718336,41.43465289400298]}},{"type":"Feature","properties":{"nom":"Jardins del Palau de Pedralbes","districte":"Les Corts","barri":"Pedralbes","adreca":"Av Diagonal"},"geometry":{"type":"Point","coordinates":[2.1184352989192647,41.38654937434819]}},{"type":"Feature","properties":{"nom":"Pati dels Tarongers","districte":"Ciutat Vella","barri":"el Raval","adreca":"Jardí dels Tarongers"},"geometry":{"type":"Point","coordinates":[2.1680932350532816,41.38374121537106]}},{"type":"Feature","properties":{"nom":"Jardins de Miramar","districte":"Sants-Montjuïc","barri":"el Poble-sec","adreca":"Plaça de l'Armada"},"geometry":{"type":"Point","coordinates":[2.1721145553202676,41.37045923777379]}},{"type":"Feature","properties":{"nom":"Jardins de Mossèn Costa i Llobera","districte":"Sants-Montjuïc","barri":"el Poble-sec","adreca":"Ctra Miramar"},"geometry":{"type":"Point","coordinates":[2.17232416934953,41.36961505587559]}},{"type":"Feature","properties":{"nom":"Jardins de Ramon Aramon i Serra","districte":"Sants-Montjuïc","barri":"Hostafrancs","adreca":"C Vidriol"},"geometry":{"type":"Point","coordinates":[2.1466294160580546,41.37466510611165]}},{"type":"Feature","properties":{"nom":"Jardins del  Baix Guinardó","districte":"Horta-Guinardó","barri":"el Baix Guinardó","adreca":"C Marina"},"geometry":{"type":"Point","coordinates":[2.168658421542334,41.40977850723608]}},{"type":"Feature","properties":{"nom":"Parc La Font Castellana","districte":"Horta-Guinardó","barri":"Can Baró","adreca":"Pl Font Castellana"},"geometry":{"type":"Point","coordinates":[2.1639253838246706,41.41740107744514]}},{"type":"Feature","properties":{"nom":"Jardins Manuel de Pedrolo","districte":"Eixample","barri":"el Fort Pienc","adreca":"Carrer de la Diputació"},"geometry":{"type":"Point","coordinates":[2.1805386383036622,41.400655547799026]}},{"type":"Feature","properties":{"nom":"Jardins Interior d'Illa de Cèsar Martinell","districte":"Eixample","barri":"l'Antiga Esquerra de l'Eixample","adreca":"C Villarroel"},"geometry":{"type":"Point","coordinates":[2.1591661776855657,41.38357457590137]}},{"type":"Feature","properties":{"nom":"Jardins Interior d'Illa d'Ermessenda de Carcassona","districte":"Eixample","barri":"la Nova Esquerra de l'Eixample","adreca":"Carrer del Comte d'Urgell"},"geometry":{"type":"Point","coordinates":[2.1520437522177067,41.386904180935765]}},{"type":"Feature","properties":{"nom":"Jardins Interiors d'Illa Anaïs Napoleon","districte":"Eixample","barri":"el Fort Pienc","adreca":"Carrer de la Marina"},"geometry":{"type":"Point","coordinates":[2.1818083028292117,41.398394329812795]}},{"type":"Feature","properties":{"nom":"Jardins de la Tamarita","districte":"Sarrià-Sant Gervasi","barri":"Sant Gervasi - la Bonanova","adreca":"Pg Sant Gervasi"},"geometry":{"type":"Point","coordinates":[2.1353308120104346,41.41090504207735]}},{"type":"Feature","properties":{"nom":"Jardins Rubió i Tuduri","districte":"Les Corts","barri":"Pedralbes","adreca":"Sor Eulàlia d'Anzizu"},"geometry":{"type":"Point","coordinates":[2.1149674090960895,41.392520033928925]}},{"type":"Feature","properties":{"nom":"Interior d'Illa Jardins de Maria Matilde Almendros","districte":"Eixample","barri":"Sant Antoni","adreca":"Carrer de Calàbria"},"geometry":{"type":"Point","coordinates":[2.1560671072867783,41.37909660891617]}},{"type":"Feature","properties":{"nom":"Jardins dels Setze Jutges","districte":"Sarrià-Sant Gervasi","barri":"Sarrià","adreca":"Via Augusta"},"geometry":{"type":"Point","coordinates":[2.122626694472471,41.40140824622511]}},{"type":"Feature","properties":{"nom":"Jardins del Doctor Duran i Reynals","districte":"Eixample","barri":"l'Antiga Esquerra de l'Eixample","adreca":"C Casanova"},"geometry":{"type":"Point","coordinates":[2.1529711276398347,41.39006208376871]}},{"type":"Feature","properties":{"nom":"Jardí Bacardí","districte":"Les Corts","barri":"la Maternitat i Sant Ramon","adreca":"Trav Corts"},"geometry":{"type":"Point","coordinates":[2.1260066458684292,41.37996721919083]}},{"type":"Feature","properties":{"nom":"Jardins de Montserrat","districte":"Eixample","barri":"la Nova Esquerra de l'Eixample","adreca":"C Rocafort"},"geometry":{"type":"Point","coordinates":[2.1457298000042595,41.38542222450258]}},{"type":"Feature","properties":{"nom":"Jardins de c. Priorat","districte":"Sants-Montjuïc","barri":"Sants","adreca":"Carrer del Priorat"},"geometry":{"type":"Point","coordinates":[2.1395162995064676,41.37419897784206]}},{"type":"Feature","properties":{"nom":"Jardí de M Rosa Farré Escofet","districte":"Les Corts","barri":"Pedralbes","adreca":"Carrer de Carreras"},"geometry":{"type":"Point","coordinates":[2.1076675530987403,41.388273407433196]}},{"type":"Feature","properties":{"nom":"Parc de Teodor Roviralta","districte":"Sarrià-Sant Gervasi","barri":"Sant Gervasi - la Bonanova","adreca":"Carrer d'Adrià Margarit"},"geometry":{"type":"Point","coordinates":[2.1310895562917507,41.414133704362115]}},{"type":"Feature","properties":{"nom":"Jardí de les Escultures *Annex Edifici Fundació Joan Miró","districte":"Sants-Montjuïc","barri":"el Poble-sec","adreca":"Avinguda de Miramar"},"geometry":{"type":"Point","coordinates":[2.1611073679131896,41.36883058473533]}},{"type":"Feature","properties":{"nom":"Jardins d'Interior d'Illa Clot d'en Salvi","districte":"Les Corts","barri":"la Maternitat i Sant Ramon","adreca":"Carrer del Pintor Pahissa"},"geometry":{"type":"Point","coordinates":[2.12223915785275,41.37777055382389]}},{"type":"Feature","properties":{"nom":"Jardinets El Talia","districte":"Eixample","barri":"Sant Antoni","adreca":"Avinguda del Paral·lel"},"geometry":{"type":"Point","coordinates":[2.164970618039537,41.3751703874243]}},{"type":"Feature","properties":{"nom":"Parc de Can Rigal","districte":"Les Corts","barri":"la Maternitat i Sant Ramon","adreca":"Av Albert Bastardas"},"geometry":{"type":"Point","coordinates":[2.1077390567867273,41.37932819241353]}},{"type":"Feature","properties":{"nom":"Parc de la Vall d'Hebron","districte":"Horta-Guinardó","barri":"la Vall d'Hebron","adreca":"Juan de Mena"},"geometry":{"type":"Point","coordinates":[2.1483932883821786,41.43124231829737]}},{"type":"Feature","properties":{"nom":"Jardins d'Elvira Farreras Valentí","districte":"Sarrià-Sant Gervasi","barri":"el Putxet i el Farró","adreca":"C Manacor"},"geometry":{"type":"Point","coordinates":[2.1430348062786257,41.407464947326254]}},{"type":"Feature","properties":{"nom":"Jardins de Carles Barral","districte":"Sant Martí","barri":"Diagonal Mar i el Front Marítim del Poblenou","adreca":"Carrer de Josep Ferrater i Móra"},"geometry":{"type":"Point","coordinates":[2.211229278665123,41.40298554153319]}},{"type":"Feature","properties":{"nom":"Jardins Mercè Plantada","districte":"Sant Martí","barri":"la Vila Olímpica del Poblenou","adreca":"Àlaba"},"geometry":{"type":"Point","coordinates":[2.1945261956868345,41.395142955127184]}},{"type":"Feature","properties":{"nom":"Jardins Interior d'Illa de Paula Montal","districte":"Eixample","barri":"la Nova Esquerra de l'Eixample","adreca":"Carrer de Viladomat"},"geometry":{"type":"Point","coordinates":[2.1543867487969446,41.381753328658114]}},{"type":"Feature","properties":{"nom":"Interior d'Illa Placeta de Maria Luz Morales","districte":"Eixample","barri":"l'Antiga Esquerra de l'Eixample","adreca":"Carrer de Buenos Aires"},"geometry":{"type":"Point","coordinates":[2.1466182423244065,41.392238511822384]}},{"type":"Feature","properties":{"nom":"El Parc del Fòrum","districte":"Sant Martí","barri":"el Besòs i el Maresme","adreca":"Pl Fòrum"},"geometry":{"type":"Point","coordinates":[2.2217148764638015,41.41106682138965]}},{"type":"Feature","properties":{"nom":"Jardins de Gandhi","districte":"Sant Martí","barri":"el Poblenou","adreca":"Ramon Turró"},"geometry":{"type":"Point","coordinates":[2.2074071363962013,41.40426650204561]}},{"type":"Feature","properties":{"nom":"Jardins Interior d'Illa de Safo","districte":"Eixample","barri":"la Nova Esquerra de l'Eixample","adreca":"Avinguda de Roma"},"geometry":{"type":"Point","coordinates":[2.1448367370116634,41.3809608611564]}},{"type":"Feature","properties":{"nom":"Jardins de Sofia Barat","districte":"Eixample","barri":"la Dreta de l'Eixample","adreca":"Carrer de Girona"},"geometry":{"type":"Point","coordinates":[2.1715220785730867,41.394705643823904]}},{"type":"Feature","properties":{"nom":"Jardí de les Alzines","districte":"Eixample","barri":"el Fort Pienc","adreca":"Pl Glòries Catalanes"},"geometry":{"type":"Point","coordinates":[2.185564297133557,41.401642081183404]}},{"type":"Feature","properties":{"nom":"Espai enjardinat","districte":"Sant Martí","barri":"el Parc i la Llacuna del Poblenou","adreca":"Av Diagonal"},"geometry":{"type":"Point","coordinates":[2.189077717717574,41.40421438991055]}},{"type":"Feature","properties":{"nom":"Jardins de Josep Munté","districte":"Les Corts","barri":"la Maternitat i Sant Ramon","adreca":"C Cardenal Reig"},"geometry":{"type":"Point","coordinates":[2.117180526318858,41.37870385314168]}},{"type":"Feature","properties":{"nom":"Jardins d'Antònia Pich Santasusanna","districte":"Sant Andreu","barri":"Sant Andreu","adreca":"Jardins d'Antònia Pich i Santasusanna"},"geometry":{"type":"Point","coordinates":[2.1947462882133695,41.42778891067299]}},{"type":"Feature","properties":{"nom":"Jardins de Lina Òdena","districte":"Eixample","barri":"el Fort Pienc","adreca":"Carrer de Sardenya"},"geometry":{"type":"Point","coordinates":[2.1833082836130293,41.39645533894941]}},{"type":"Feature","properties":{"nom":"Jardins dels Drets Humans","districte":"Sants-Montjuïc","barri":"la Marina de Port","adreca":"C Foneria"},"geometry":{"type":"Point","coordinates":[2.1367088188150576,41.361026562681914]}},{"type":"Feature","properties":{"nom":"Jardins de Josep Trueta","districte":"Sant Martí","barri":"el Poblenou","adreca":"C Llull"},"geometry":{"type":"Point","coordinates":[2.2056310183411125,41.40379216389054]}},{"type":"Feature","properties":{"nom":"Jardins Can Xiringoi","districte":"Nou Barris","barri":"Vilapicina i la Torre Llobeta","adreca":"C Costa i Cuxart"},"geometry":{"type":"Point","coordinates":[2.175718380948309,41.42771563875548]}},{"type":"Feature","properties":{"nom":"Jardins Interior d'Illa de Beatriu Pinós-Milany","districte":"Eixample","barri":"l'Antiga Esquerra de l'Eixample","adreca":"Carrer del Rosselló"},"geometry":{"type":"Point","coordinates":[2.151024116769772,41.38872228496438]}},{"type":"Feature","properties":{"nom":"Jardins Interior d'Illa Càndida Pérez","districte":"Eixample","barri":"Sant Antoni","adreca":"Carrer del Comte Borrell"},"geometry":{"type":"Point","coordinates":[2.162795360343474,41.377425411135064]}},{"type":"Feature","properties":{"nom":"Parc de la Primavera","districte":"Sants-Montjuïc","barri":"el Poble-sec","adreca":"C Nou de la Rambla"},"geometry":{"type":"Point","coordinates":[2.1658337161656225,41.370463961160546]}},{"type":"Feature","properties":{"nom":"Jardí de la Casa Ignacio de Puig","districte":"Ciutat Vella","barri":"el Barri Gòtic","adreca":"Carrer d'en Quintana"},"geometry":{"type":"Point","coordinates":[2.1744253251205516,41.38112208159851]}},{"type":"Feature","properties":{"nom":"Parc de Montjuïc","districte":"Sants-Montjuïc","barri":"el Poble-sec","adreca":"Pg Migdia"},"geometry":{"type":"Point","coordinates":[2.157516161678922,41.36332511934043]}},{"type":"Feature","properties":{"nom":"Placeta Joan Brossa","districte":"Eixample","barri":"l'Antiga Esquerra de l'Eixample","adreca":"Carrer del Rosselló"},"geometry":{"type":"Point","coordinates":[2.154985585974796,41.392434558929324]}},{"type":"Feature","properties":{"nom":"Jardins d'Ernest Lluch","districte":"Les Corts","barri":"la Maternitat i Sant Ramon","adreca":"C Cardenal Reig"},"geometry":{"type":"Point","coordinates":[2.1132864987094315,41.378339528442744]}},{"type":"Feature","properties":{"nom":"Jardins Interior d'Illa Mercè Vilaret","districte":"Eixample","barri":"Sant Antoni","adreca":"Carrer de Floridablanca"},"geometry":{"type":"Point","coordinates":[2.1624466331941234,41.38202846704778]}},{"type":"Feature","properties":{"nom":"Parc de Joan Reventós","districte":"Sarrià-Sant Gervasi","barri":"Sarrià","adreca":"Carrer de Ràfols"},"geometry":{"type":"Point","coordinates":[2.116653487838351,41.401666873802185]}},{"type":"Feature","properties":{"nom":"Jardins de Portolà","districte":"Sarrià-Sant Gervasi","barri":"el Putxet i el Farró","adreca":"C Portolà"},"geometry":{"type":"Point","coordinates":[2.14255769920195,41.410819046980855]}},{"type":"Feature","properties":{"nom":"Jardins Creu de Pedralbes","districte":"Les Corts","barri":"Pedralbes","adreca":"Av Pearson"},"geometry":{"type":"Point","coordinates":[2.1115767347502405,41.39433185278547]}},{"type":"Feature","properties":{"nom":"Jardins de la Reina Victòria Eugènia","districte":"Eixample","barri":"la Dreta de l'Eixample","adreca":"G.V. Corts Catalanes"},"geometry":{"type":"Point","coordinates":[2.1679803401568054,41.38888657157082]}},{"type":"Feature","properties":{"nom":"Jardins Pedro Muñoz Seca","districte":"Horta-Guinardó","barri":"Montbau","adreca":"Arquitectura"},"geometry":{"type":"Point","coordinates":[2.140746507324218,41.427728364374765]}},{"type":"Feature","properties":{"nom":"Interior d'Illa Jardins Pallars","districte":"Sant Martí","barri":"el Poblenou","adreca":"Camí Antic de València"},"geometry":{"type":"Point","coordinates":[2.201814673831697,41.405503460405995]}},{"type":"Feature","properties":{"nom":"Jardins d'Antoni Puigvert","districte":"Gràcia","barri":"el Camp d'en Grassot i Gràcia Nova","adreca":"C Sicília"},"geometry":{"type":"Point","coordinates":[2.1691315376296347,41.40476853682401]}},{"type":"Feature","properties":{"nom":"Jardins de l'Alzina","districte":"Gràcia","barri":"la Vila de Gràcia","adreca":"Carrer de l'Encarnació"},"geometry":{"type":"Point","coordinates":[2.1586241741465275,41.40557115587016]}},{"type":"Feature","properties":{"nom":"Interior d'Illa Sidó Lledoner","districte":"Horta-Guinardó","barri":"Sant Genís dels Agudells","adreca":"Carrer del Lledoner"},"geometry":{"type":"Point","coordinates":[2.138719495862864,41.42495383985393]}},{"type":"Feature","properties":{"nom":"Jardins de la Casa Elizalde","districte":"Eixample","barri":"la Dreta de l'Eixample","adreca":"Carrer de València"},"geometry":{"type":"Point","coordinates":[2.1659008246716773,41.394518930348355]}},{"type":"Feature","properties":{"nom":"Jardins del Mirador de l'Alcalde","districte":"Sants-Montjuïc","barri":"el Poble-sec","adreca":"Carretera de Montjuïc"},"geometry":{"type":"Point","coordinates":[2.169190267865246,41.366934580208515]}},{"type":"Feature","properties":{"nom":"Jardins de Mercè Rovira","districte":"Sant Andreu","barri":"la Sagrera","adreca":"Carrer d'Hondures"},"geometry":{"type":"Point","coordinates":[2.1883260751324616,41.42089541340011]}},{"type":"Feature","properties":{"nom":"Parc Plaça de Sóller","districte":"Nou Barris","barri":"Porta","adreca":"Pl Sóller"},"geometry":{"type":"Point","coordinates":[2.1771519171502733,41.43354088046919]}},{"type":"Feature","properties":{"nom":"Jardins de Torre Girona","districte":"Les Corts","barri":"Pedralbes","adreca":"Carrer de Jordi Girona"},"geometry":{"type":"Point","coordinates":[2.116514709515715,41.38890928588288]}},{"type":"Feature","properties":{"nom":"Parc de la Nova Icària","districte":"Sant Martí","barri":"la Vila Olímpica del Poblenou","adreca":"Jaume Vicens i Vives"},"geometry":{"type":"Point","coordinates":[2.201624246671236,41.391532179445136]}},{"type":"Feature","properties":{"nom":"Jardins Manuel Blancafort","districte":"Gràcia","barri":"Vallcarca i els Penitents","adreca":"Av República Argentina"},"geometry":{"type":"Point","coordinates":[2.144758244840197,41.4116593851312]}},{"type":"Feature","properties":{"nom":"Jardins de Can Miralletes","districte":"Sant Martí","barri":"el Camp de l'Arpa del Clot","adreca":"C Sant Antoni Maria Claret"},"geometry":{"type":"Point","coordinates":[2.1785970770178253,41.41426519749023]}},{"type":"Feature","properties":{"nom":"Jardins del Doctor Roig i Raventós","districte":"Sarrià-Sant Gervasi","barri":"les Tres Torres","adreca":"C Ganduxer"},"geometry":{"type":"Point","coordinates":[2.1309603596928692,41.40335416512297]}},{"type":"Feature","properties":{"nom":"Jardins Interiors d'Illa  Via Favència","districte":"Nou Barris","barri":"la Prosperitat","adreca":"Via Favència"},"geometry":{"type":"Point","coordinates":[2.1828602593903743,41.44627491871234]}},{"type":"Feature","properties":{"nom":"Parc de l'Aqüeducte de Ciutat Meridiana","districte":"Nou Barris","barri":"Ciutat Meridiana","adreca":"Avinguda dels Rasos de Peguera"},"geometry":{"type":"Point","coordinates":[2.175925124292116,41.459500375086016]}},{"type":"Feature","properties":{"nom":"Jardins","districte":"Eixample","barri":"l'Antiga Esquerra de l'Eixample","adreca":"Carrer de la Diputació"},"geometry":{"type":"Point","coordinates":[2.163452092831893,41.38784455590361]}},{"type":"Feature","properties":{"nom":"Jardins Interior d'Illa José Ignacio Urenda","districte":"Nou Barris","barri":"el Turó de la Peira","adreca":"Pg Peira"},"geometry":{"type":"Point","coordinates":[2.1703273038218924,41.430959022271544]}},{"type":"Feature","properties":{"nom":"Parc de les Glòries","districte":"Eixample","barri":"el Fort Pienc","adreca":"Plaça de les Glòries Catalanes"},"geometry":{"type":"Point","coordinates":[2.1852809514836546,41.403683456120994]}},{"type":"Feature","properties":{"nom":"Jardins del Doctor Samuel Hahnemann","districte":"Sarrià-Sant Gervasi","barri":"Sant Gervasi - Galvany","adreca":"Av Sarrià"},"geometry":{"type":"Point","coordinates":[2.1371959203557087,41.39196559276461]}},{"type":"Feature","properties":{"nom":"Jardins de Fabià Puigserver","districte":"Sants-Montjuïc","barri":"el Poble-sec","adreca":"C Lleida"},"geometry":{"type":"Point","coordinates":[2.1572720150890574,41.37053826503267]}},{"type":"Feature","properties":{"nom":"Jardins de Carme Biada","districte":"Eixample","barri":"la Dreta de l'Eixample","adreca":"Carrer de Roger de Llúria"},"geometry":{"type":"Point","coordinates":[2.162312408547999,41.39824492278454]}},{"type":"Feature","properties":{"nom":"Jardins de Salvador Escamilla","districte":"Sarrià-Sant Gervasi","barri":"Sarrià","adreca":"C Hort de la Vila"},"geometry":{"type":"Point","coordinates":[2.1235314163176278,41.39929570329813]}},{"type":"Feature","properties":{"nom":"Jardins d'Esteve Terradas","districte":"Gràcia","barri":"Vallcarca i els Penitents","adreca":"C Esteve Terradas"},"geometry":{"type":"Point","coordinates":[2.141832834710263,41.413432230810066]}},{"type":"Feature","properties":{"nom":"Jardins de Simone de Beauvoir","districte":"Sant Martí","barri":"el Poblenou","adreca":"C Bilbao"},"geometry":{"type":"Point","coordinates":[2.204896714047769,41.40238689007209]}},{"type":"Feature","properties":{"nom":"Parc de la Maquinista per les treballadores i els treballadors de la Maquinista","districte":"Sant Andreu","barri":"el Bon Pastor","adreca":"Passeig de l'Havana"},"geometry":{"type":"Point","coordinates":[2.195536965654686,41.43644435327476]}},{"type":"Feature","properties":{"nom":"Jardins de la Indústria","districte":"Eixample","barri":"la Sagrada Família","adreca":"Carrer de la Indústria"},"geometry":{"type":"Point","coordinates":[2.1710300807550866,41.40796085984799]}},{"type":"Feature","properties":{"nom":"Jardins de Rosa Mª Arquimbau","districte":"Sant Martí","barri":"Provençals del Poblenou","adreca":"C Cristóbal de Moura"},"geometry":{"type":"Point","coordinates":[2.209628537621381,41.41307054790584]}},{"type":"Feature","properties":{"nom":"Jardins Emília Miret i Soler","districte":"Les Corts","barri":"Pedralbes","adreca":"Ptge Rosa Leveroni"},"geometry":{"type":"Point","coordinates":[2.126885535770078,41.39059694605795]}},{"type":"Feature","properties":{"nom":"Jardins de William Shakespeare","districte":"Les Corts","barri":"Pedralbes","adreca":"C Dulcet"},"geometry":{"type":"Point","coordinates":[2.1178101517815517,41.39034641953064]}},{"type":"Feature","properties":{"nom":"Jardí Interior de la Casa de la Misericòrdia","districte":"Ciutat Vella","barri":"el Raval","adreca":"Carrer d'Elisabets"},"geometry":{"type":"Point","coordinates":[2.1687645955837462,41.38350225179667]}},{"type":"Feature","properties":{"nom":"Jardí sud de la Masia de Can Fargues","districte":"Horta-Guinardó","barri":"la Font d'en Fargues","adreca":"Pg Maragall"},"geometry":{"type":"Point","coordinates":[2.164654527288568,41.4277578202143]}},{"type":"Feature","properties":{"nom":"Jardins de les Hortes de Sant Bertran","districte":"Sants-Montjuïc","barri":"el Poble-sec","adreca":"Vila i Vilà"},"geometry":{"type":"Point","coordinates":[2.174637822860927,41.3725776684158]}},{"type":"Feature","properties":{"nom":"Parc de Trinitat Nova","districte":"Nou Barris","barri":"la Trinitat Nova","adreca":"C Tamariu"},"geometry":{"type":"Point","coordinates":[2.1851898009580086,41.449616932711336]}},{"type":"Feature","properties":{"nom":"Jardins d'Irene Polo","districte":"Sant Martí","barri":"Provençals del Poblenou","adreca":"Carrer de la Llacuna"},"geometry":{"type":"Point","coordinates":[2.1932897936864344,41.40552505363336]}},{"type":"Feature","properties":{"nom":"Jardins Passatge Pallars","districte":"Sant Martí","barri":"el Parc i la Llacuna del Poblenou","adreca":"Carrer de Pallars"},"geometry":{"type":"Point","coordinates":[2.1905541269734763,41.39596629856599]}},{"type":"Feature","properties":{"nom":"Jardins Placeta Martina Castells","districte":"Ciutat Vella","barri":"el Raval","adreca":"Carrer de Sant Llàtzer"},"geometry":{"type":"Point","coordinates":[2.1669218986242362,41.37985241916283]}},{"type":"Feature","properties":{"nom":"Jardins Plaça d'Henry Dunant","districte":"Eixample","barri":"la Sagrada Família","adreca":"Carrer de Còrsega"},"geometry":{"type":"Point","coordinates":[2.1770124965475017,41.40995851184003]}},{"type":"Feature","properties":{"nom":"Jardins de la Plaça Sagrada Família","districte":"Eixample","barri":"la Sagrada Família","adreca":"Pl Sagrada Família"},"geometry":{"type":"Point","coordinates":[2.1728272813678537,41.40197393230216]}},{"type":"Feature","properties":{"nom":"Jardins de la Plaça de Sant Cristòfol","districte":"Sants-Montjuïc","barri":"la Marina de Port","adreca":"Pl Sant Cristòfol"},"geometry":{"type":"Point","coordinates":[2.136570351595846,41.35883305531073]}},{"type":"Feature","properties":{"nom":"Jardins de Rosa Deulofeu","districte":"Eixample","barri":"la Nova Esquerra de l'Eixample","adreca":"Carrer de Calàbria"},"geometry":{"type":"Point","coordinates":[2.1453180539412853,41.38715671178988]}},{"type":"Feature","properties":{"nom":"Jardí de les Escultures","districte":"Sants-Montjuïc","barri":"el Poble-sec","adreca":"Av Francesc Ferrer Guàrdia"},"geometry":{"type":"Point","coordinates":[2.1467430809493484,41.36914809976752]}},{"type":"Feature","properties":{"nom":"Jardins de Vil·la Amèlia","districte":"Sarrià-Sant Gervasi","barri":"Sarrià","adreca":"Carrer d'Eduardo Conde"},"geometry":{"type":"Point","coordinates":[2.1211872573336934,41.39390619967619]}},{"type":"Feature","properties":{"nom":"Jardins de Vil·la Florida","districte":"Sarrià-Sant Gervasi","barri":"Sant Gervasi - la Bonanova","adreca":"C Muntaner"},"geometry":{"type":"Point","coordinates":[2.135308972460361,41.405365338998074]}},{"type":"Feature","properties":{"nom":"Jardins de Victòria de los Ángeles","districte":"Ciutat Vella","barri":"el Raval","adreca":"C Montalegre"},"geometry":{"type":"Point","coordinates":[2.167331566974877,41.384031930477754]}},{"type":"Feature","properties":{"nom":"Parc de la Trinitat","districte":"Sant Andreu","barri":"Sant Andreu","adreca":"Pg Santa Coloma"},"geometry":{"type":"Point","coordinates":[2.1956548753915466,41.449268825219306]}},{"type":"Feature","properties":{"nom":"Jardins Can Farrero","districte":"Sants-Montjuïc","barri":"la Marina de Port","adreca":"Pg Zona Franca"},"geometry":{"type":"Point","coordinates":[2.141405753452258,41.35757415117613]}},{"type":"Feature","properties":{"nom":"Jardins Interior d'Illa de Montserrat Roig","districte":"Eixample","barri":"la Sagrada Família","adreca":"Carrer del Rosselló"},"geometry":{"type":"Point","coordinates":[2.178438240083388,41.40884184106481]}},{"type":"Feature","properties":{"nom":"Parc de Josep Maria Serra Martí","districte":"Nou Barris","barri":"Canyelles","adreca":"C Miguel Hernández"},"geometry":{"type":"Point","coordinates":[2.1659541496737007,41.44296160942353]}},{"type":"Feature","properties":{"nom":"Jardins de Marcos Redondo","districte":"Eixample","barri":"l'Antiga Esquerra de l'Eixample","adreca":"Buenos Aires"},"geometry":{"type":"Point","coordinates":[2.1452552059295558,41.39098475931237]}},{"type":"Feature","properties":{"nom":"Jardinets de l'Alguer","districte":"Eixample","barri":"Sant Antoni","adreca":"Avinguda de Mistral"},"geometry":{"type":"Point","coordinates":[2.158998204210256,41.377351035156295]}},{"type":"Feature","properties":{"nom":"Jardins Voltes d'en Cirés","districte":"Ciutat Vella","barri":"el Raval","adreca":"C Nou de la Rambla"},"geometry":{"type":"Point","coordinates":[2.1724976608238196,41.37732863079318]}},{"type":"Feature","properties":{"nom":"Jardins del Turó del Putxet","districte":"Sarrià-Sant Gervasi","barri":"el Putxet i el Farró","adreca":"C Manacor"},"geometry":{"type":"Point","coordinates":[2.1425177258809422,41.407747349305964]}},{"type":"Feature","properties":{"nom":"Parc de Monterols","districte":"Sarrià-Sant Gervasi","barri":"Sant Gervasi - Galvany","adreca":"Carrer de Muntaner"},"geometry":{"type":"Point","coordinates":[2.1397735122452017,41.401613054797835]}},{"type":"Feature","properties":{"nom":"Jardins Interiors d'Illa Escultor Ordoñez","districte":"Nou Barris","barri":"Porta","adreca":"Carrer de l'Escultor Ordóñez"},"geometry":{"type":"Point","coordinates":[2.1764948489636664,41.4356803366201]}},{"type":"Feature","properties":{"nom":"Jardins del Mirall de Pedralbes","districte":"Les Corts","barri":"Pedralbes","adreca":"C Doctor Ferran"},"geometry":{"type":"Point","coordinates":[2.124268289181158,41.390680064262654]}},{"type":"Feature","properties":{"nom":"Jardins Ca l'Alena","districte":"Sants-Montjuïc","barri":"la Marina de Port","adreca":"Carrer dels Alts Forns"},"geometry":{"type":"Point","coordinates":[2.142956277997902,41.359733095858935]}},{"type":"Feature","properties":{"nom":"Jardins de la Maternitat","districte":"Les Corts","barri":"la Maternitat i Sant Ramon","adreca":"Trav Corts"},"geometry":{"type":"Point","coordinates":[2.1262516820863993,41.38132376004671]}},{"type":"Feature","properties":{"nom":"Jardins de Moragas","districte":"Sarrià-Sant Gervasi","barri":"Sant Gervasi - Galvany","adreca":"Tavern"},"geometry":{"type":"Point","coordinates":[2.145591339075409,41.397897961749294]}},{"type":"Feature","properties":{"nom":"Jardins de la Torre de Les Aigües","districte":"Eixample","barri":"la Dreta de l'Eixample","adreca":"Carrer de Roger de Llúria"},"geometry":{"type":"Point","coordinates":[2.169153046082549,41.39309052605406]}},{"type":"Feature","properties":{"nom":"Jardins Can Brasó","districte":"Horta-Guinardó","barri":"la Vall d'Hebron","adreca":"Juan de Mena"},"geometry":{"type":"Point","coordinates":[2.1483932883821786,41.43124231829737]}},{"type":"Feature","properties":{"nom":"Jardins Rosa Luxemburg","districte":"Horta-Guinardó","barri":"la Vall d'Hebron","adreca":"Av Cardenal Vidal Barraquer"},"geometry":{"type":"Point","coordinates":[2.152778867095455,41.43226118482405]}},{"type":"Feature","properties":{"nom":"Jardins del Doctor Fleming","districte":"Ciutat Vella","barri":"el Raval","adreca":"C Floristes de la Rambla"},"geometry":{"type":"Point","coordinates":[2.1698701741655286,41.3816748521253]}},{"type":"Feature","properties":{"nom":"Jardins de Frida Kahlo","districte":"Horta-Guinardó","barri":"la Vall d'Hebron","adreca":"Berruguete"},"geometry":{"type":"Point","coordinates":[2.1474785392754883,41.4335657076192]}},{"type":"Feature","properties":{"nom":"Jardí de Can Solé","districte":"Horta-Guinardó","barri":"Sant Genís dels Agudells","adreca":"C Cànoves"},"geometry":{"type":"Point","coordinates":[2.1347402415620436,41.42676173206655]}},{"type":"Feature","properties":{"nom":"Jardins Interior d'Illa de Clotilde Cerdà","districte":"Eixample","barri":"el Fort Pienc","adreca":"Carrer de la Marina"},"geometry":{"type":"Point","coordinates":[2.178975150453768,41.4005493193399]}},{"type":"Feature","properties":{"nom":"Jardins de Massana","districte":"Sant Andreu","barri":"el Congrés i els Indians","adreca":"Felip II"},"geometry":{"type":"Point","coordinates":[2.1785261828350926,41.42704189433846]}},{"type":"Feature","properties":{"nom":"Jardins Maria Capdevila","districte":"Horta-Guinardó","barri":"Horta","adreca":"C Grífols"},"geometry":{"type":"Point","coordinates":[2.159570336326216,41.42748106849125]}},{"type":"Feature","properties":{"nom":"Jardins d'Ana Figuera","districte":"Sant Martí","barri":"Sant Martí de Provençals","adreca":"C Jordi Rubió i Balaguer"},"geometry":{"type":"Point","coordinates":[2.202340412388594,41.416482630468536]}},{"type":"Feature","properties":{"nom":"Jardins de Rodrigo Caro","districte":"Nou Barris","barri":"les Roquetes","adreca":"Jardins de Rodrigo Caro"},"geometry":{"type":"Point","coordinates":[2.171349371446177,41.44786543994044]}},{"type":"Feature","properties":{"nom":"Jardins","districte":"Horta-Guinardó","barri":"la Vall d'Hebron","adreca":"Avinguda del Cardenal Vidal i Barraquer"},"geometry":{"type":"Point","coordinates":[2.1493051264770284,41.42736654472414]}},{"type":"Feature","properties":{"nom":"Jardins Francesc Blanc","districte":"Sarrià-Sant Gervasi","barri":"el Putxet i el Farró","adreca":"Costa"},"geometry":{"type":"Point","coordinates":[2.1446039272005524,41.41052351533626]}},{"type":"Feature","properties":{"nom":"Jardins Menendez y Pelayo","districte":"Gràcia","barri":"la Salut","adreca":"Mossèn Batlle"},"geometry":{"type":"Point","coordinates":[2.1526212419493542,41.4092608672373]}},{"type":"Feature","properties":{"nom":"Jardins Joaquim Domingo i Sanchez","districte":"Sants-Montjuïc","barri":"Sants","adreca":"Comtes de Bell-lloc"},"geometry":{"type":"Point","coordinates":[2.1383570245016768,41.37888989600432]}},{"type":"Feature","properties":{"nom":"Parc de Joan Miró","districte":"Eixample","barri":"la Nova Esquerra de l'Eixample","adreca":"Carrer d'Aragó"},"geometry":{"type":"Point","coordinates":[2.1493406545619487,41.37726829547463]}},{"type":"Feature","properties":{"nom":"Jardins Valent Petit","districte":"Sants-Montjuïc","barri":"la Marina de Port","adreca":"Pl Ildefons Cerdà"},"geometry":{"type":"Point","coordinates":[2.136318854001666,41.36492871730164]}},{"type":"Feature","properties":{"nom":"Parc Jorge Manrique","districte":"Horta-Guinardó","barri":"la Vall d'Hebron","adreca":"Jorge Manrique"},"geometry":{"type":"Point","coordinates":[2.1468802640256657,41.43225574768443]}},{"type":"Feature","properties":{"nom":"Parc de Can Sabaté","districte":"Sants-Montjuïc","barri":"la Marina de Port","adreca":"C Mineria"},"geometry":{"type":"Point","coordinates":[2.137749555318519,41.36437449049291]}},{"type":"Feature","properties":{"nom":"Parc del Port Olímpic","districte":"Sant Martí","barri":"la Vila Olímpica del Poblenou","adreca":"Av Litoral"},"geometry":{"type":"Point","coordinates":[2.1991766508205544,41.389048081071486]}},{"type":"Feature","properties":{"nom":"Parc del Poblenou","districte":"Sant Martí","barri":"el Poblenou","adreca":"Av Litoral"},"geometry":{"type":"Point","coordinates":[2.207470604184096,41.397279718190724]}},{"type":"Feature","properties":{"nom":"Jardins Interior d'Illa d'Henri Dunant","districte":"Eixample","barri":"la Sagrada Família","adreca":"Carrer de Còrsega"},"geometry":{"type":"Point","coordinates":[2.1769835422306465,41.40992338699636]}},{"type":"Feature","properties":{"nom":"Jardins d'Agustí Centelles","districte":"Eixample","barri":"la Dreta de l'Eixample","adreca":"Carrer de Roger de Flor"},"geometry":{"type":"Point","coordinates":[2.1702761978400433,41.40045732937218]}},{"type":"Feature","properties":{"nom":"Jardí de Francesc Masclans i Girvès","districte":"Sants-Montjuïc","barri":"la Bordeta","adreca":"Carrer del Quetzal"},"geometry":{"type":"Point","coordinates":[2.1329752557153703,41.366939417707854]}},{"type":"Feature","properties":{"nom":"Jardins de la plaça Wagner","districte":"Sarrià-Sant Gervasi","barri":"Sant Gervasi - Galvany","adreca":"Plaça de Wagner"},"geometry":{"type":"Point","coordinates":[2.1399929033111755,41.392385308608056]}},{"type":"Feature","properties":{"nom":"Jardins de Can Ferrer","districte":"Sarrià-Sant Gervasi","barri":"Sant Gervasi - Galvany","adreca":"C Alfons XII"},"geometry":{"type":"Point","coordinates":[2.1488412870625373,41.39931373822779]}},{"type":"Feature","properties":{"nom":"Interior d'Illa Jardins de la Plaça Dolors Piera","districte":"Sant Martí","barri":"el Parc i la Llacuna del Poblenou","adreca":"Plaça de Dolors Piera"},"geometry":{"type":"Point","coordinates":[2.1944830224777174,41.401588249139294]}},{"type":"Feature","properties":{"nom":"Jardins Interiors d'Illa del Carlit","districte":"Eixample","barri":"la Dreta de l'Eixample","adreca":"Carrer de Roger de Flor"},"geometry":{"type":"Point","coordinates":[2.1752703802550593,41.39730692489515]}},{"type":"Feature","properties":{"nom":"Jardi de les Aromes","districte":"Sants-Montjuïc","barri":"el Poble-sec","adreca":"C Mare de Déu de Port"},"geometry":{"type":"Point","coordinates":[2.149012074553124,41.35439601685321]}},{"type":"Feature","properties":{"nom":"Jardí de la Mediterrànea","districte":"Sants-Montjuïc","barri":"el Poble-sec","adreca":"C Mare de Déu de Port"},"geometry":{"type":"Point","coordinates":[2.149012074553124,41.35439601685321]}},{"type":"Feature","properties":{"nom":"Parc de Xavier Montsalvatge","districte":"Horta-Guinardó","barri":"Horta","adreca":"C Síndic Rahola"},"geometry":{"type":"Point","coordinates":[2.1527809830615108,41.44061374485372]}},{"type":"Feature","properties":{"nom":"Parc del Maresme","districte":"Sant Martí","barri":"Diagonal Mar i el Front Marítim del Poblenou","adreca":"Passeig de Garcia Fària"},"geometry":{"type":"Point","coordinates":[2.213516046803923,41.403082214514825]}},{"type":"Feature","properties":{"nom":"Jardins Plaça Gabriela Mistral","districte":"Sant Martí","barri":"el Clot","adreca":"Plaça de Gabriela Mistral"},"geometry":{"type":"Point","coordinates":[2.193270557140923,41.40985780765191]}},{"type":"Feature","properties":{"nom":"Jardins de Margaret Michaelis","districte":"Gràcia","barri":"Vallcarca i els Penitents","adreca":"Carrer d'Anna Piferrer"},"geometry":{"type":"Point","coordinates":[2.140492956271959,41.41726954970083]}},{"type":"Feature","properties":{"nom":"Jardins Interiors d'Illes Palomar - Cinca","districte":"Sant Andreu","barri":"Sant Andreu","adreca":"Carrer del Cinca"},"geometry":{"type":"Point","coordinates":[2.1923164605289123,41.44169761987187]}},{"type":"Feature","properties":{"nom":"Jardins de Canals i Junyer","districte":"Gràcia","barri":"Vallcarca i els Penitents","adreca":"Viaducte de Vallcarca"},"geometry":{"type":"Point","coordinates":[2.144192188013562,41.41277639924962]}},{"type":"Feature","properties":{"nom":"Parc Bederrida - Zona d'Us Esportiu","districte":"Les Corts","barri":"la Maternitat i Sant Ramon","adreca":"C Pascual i Vila"},"geometry":{"type":"Point","coordinates":[2.1181888535525486,41.3833569079077]}},{"type":"Feature","properties":{"nom":"Parc de les Tretze Roses","districte":"Sants-Montjuïc","barri":"la Marina del Prat Vermell","adreca":"Carrer de Pontils"},"geometry":{"type":"Point","coordinates":[2.1416730073529306,41.351628742955796]}},{"type":"Feature","properties":{"nom":"Pati Interior d'Illa d'Agustí Centelles","districte":"Eixample","barri":"la Dreta de l'Eixample","adreca":"Passeig de Sant Joan"},"geometry":{"type":"Point","coordinates":[2.1694344399364667,41.39988081391009]}},{"type":"Feature","properties":{"nom":"Jardins Interior d'Illa Feliu i Codina","districte":"Nou Barris","barri":"la Guineueta","adreca":"Carrer de Feliu i Codina"},"geometry":{"type":"Point","coordinates":[2.164503270926181,41.4386913739371]}},{"type":"Feature","properties":{"nom":"Jardí Interior d'Illa del Mercat del Guinardó","districte":"Horta-Guinardó","barri":"el Guinardó","adreca":"Carrer de Teodor Llorente"},"geometry":{"type":"Point","coordinates":[2.1786363112815685,41.41954953548071]}},{"type":"Feature","properties":{"nom":"Jardins de Pilar Epuña i Domènech","districte":"Nou Barris","barri":"el Turó de la Peira","adreca":"Jardí de Pilar Espuña i Domènech"},"geometry":{"type":"Point","coordinates":[2.1729174161996707,41.43264585432189]}},{"type":"Feature","properties":{"nom":"Jardins de Vèlia","districte":"Sant Andreu","barri":"el Congrés i els Indians","adreca":"Carrer de Vèlia"},"geometry":{"type":"Point","coordinates":[2.180830757652329,41.427327847267705]}},{"type":"Feature","properties":{"nom":"Jardí de l'interior de l'Illa  Bernat Bransi","districte":"Horta-Guinardó","barri":"el Carmel","adreca":"Carrer de Bernat Bransi"},"geometry":{"type":"Point","coordinates":[2.1540997147189493,41.42465679817855]}},{"type":"Feature","properties":{"nom":"Jardí de la Placeta Lugo","districte":"Horta-Guinardó","barri":"el Carmel","adreca":"Carrer de Lugo"},"geometry":{"type":"Point","coordinates":[2.155405856044141,41.422882829288326]}},{"type":"Feature","properties":{"nom":"Jardins de la Plaça Heroïnes de Girona","districte":"Sant Martí","barri":"el Camp de l'Arpa del Clot","adreca":"Carrer del Rosselló"},"geometry":{"type":"Point","coordinates":[2.1796733508132946,41.41020051685212]}},{"type":"Feature","properties":{"nom":"Jardins del Tren de la Potassa","districte":"Sants-Montjuïc","barri":"la Marina de Port","adreca":"Carrer dels Ferrocarrils Catalans"},"geometry":{"type":"Point","coordinates":[2.141712294076072,41.36117581347401]}},{"type":"Feature","properties":{"nom":"Parc de Can Batlló","districte":"Sants-Montjuïc","barri":"la Bordeta","adreca":"Carrer de la Constitució"},"geometry":{"type":"Point","coordinates":[2.135756464932366,41.36864743589308]}},{"type":"Feature","properties":{"nom":"Jardins de l'Illa Costa","districte":"Sarrià-Sant Gervasi","barri":"el Putxet i el Farró","adreca":"Carrer de la Costa"},"geometry":{"type":"Point","coordinates":[2.1437341979045534,41.41078278314846]}},{"type":"Feature","properties":{"nom":"Jardins Illa Sancho de Avila - Pamplona","districte":"Sant Martí","barri":"el Parc i la Llacuna del Poblenou","adreca":"Carrer de Sancho de Ávila"},"geometry":{"type":"Point","coordinates":[2.1882640727435843,41.39755768900707]}},{"type":"Feature","properties":{"nom":"Jardins de l'Energia","districte":"Sants-Montjuïc","barri":"la Marina de Port","adreca":"Carrer de l'Energia"},"geometry":{"type":"Point","coordinates":[2.1352528620975972,41.35971339722081]}},{"type":"Feature","properties":{"nom":"Jardí del Passeig Santa Madrona","districte":"Sants-Montjuïc","barri":"el Poble-sec","adreca":"Passeig de Santa Madrona"},"geometry":{"type":"Point","coordinates":[2.158471027260515,41.36753206409716]}},{"type":"Feature","properties":{"nom":"Jardins de la Torre del Fang","districte":"Sant Andreu","barri":"Navas","adreca":"Carrer del Clot"},"geometry":{"type":"Point","coordinates":[2.191623140941195,41.41601615927809]}},{"type":"Feature","properties":{"nom":"Jardí Geològic de la Zona Universitària","districte":"Les Corts","barri":"la Maternitat i Sant Ramon","adreca":"Carrer de Menéndez y Pelayo"},"geometry":{"type":"Point","coordinates":[2.121359495436699,41.38425370294941]}},{"type":"Feature","properties":{"nom":"Jardins Plaça Vila de Madrid","districte":"Ciutat Vella","barri":"el Barri Gòtic","adreca":"Plaça de la Vila de Madrid"},"geometry":{"type":"Point","coordinates":[2.172302356653835,41.384428514776054]}},{"type":"Feature","properties":{"nom":"Parc de la Colònia Castells","districte":"Les Corts","barri":"les Corts","adreca":"Carrer del Montnegre"},"geometry":{"type":"Point","coordinates":[2.1392774628599005,41.38763361496539]}},{"type":"Feature","properties":{"nom":"Jardins carrer Santa Rosa","districte":"Gràcia","barri":"la Vila de Gràcia","adreca":"Carrer de Rosa Puig-Rodon Pla"},"geometry":{"type":"Point","coordinates":[2.1528643306761417,41.4032590692805]}},{"type":"Feature","properties":{"nom":"Jardins de Leonor Serrano","districte":"Sant Martí","barri":"el Clot","adreca":"Carrer d'Andrade"},"geometry":{"type":"Point","coordinates":[2.1936010646900845,41.41117685628542]}},{"type":"Feature","properties":{"nom":"Jardins del Passatge Caminal","districte":"Sant Martí","barri":"el Poblenou","adreca":"Passatge del Caminal"},"geometry":{"type":"Point","coordinates":[2.197139511359567,41.39983869878987]}},{"type":"Feature","properties":{"nom":"Jardí Antònia Vilàs i Ferràndiz","districte":"Ciutat Vella","barri":"la Barceloneta","adreca":"Carrer de Ginebra"},"geometry":{"type":"Point","coordinates":[2.190767526636862,41.38220869633313]}}]}