{"type":"FeatureCollection","features":[{"type":"Feature","properties":{"nom":"Valent Petit","ha":0,"districte":"—","ident":"—"},"geometry":{"type":"MultiPolygon","coordinates":[[[[2.13417491645148,41.36507036695864],[2.134227981643254,41.365143664361874],[2.134095319279512,41.36538692232396],[2.133944533141135,41.36538578759858],[2.133875321240211,41.36529816760057],[2.134173634807416,41.36507225077397],[2.13417491645148,41.36507036695864]]]]}},{"type":"Feature","properties":{"nom":"Joan Miró","ha":0,"districte":"—","ident":"—"},"geometry":{"type":"MultiPolygon","coordinates":[[[[2.148109551867497,41.377831183119056],[2.148306248300473,41.37797654175839],[2.14850933627123,41.3778246748868],[2.148305197878508,41.37767168768732],[2.148109576573557,41.37782928984672],[2.148109551867497,41.377831183119056]]]]}},{"type":"Feature","properties":{"nom":"Illa Pangea","ha":0,"districte":"—","ident":"—"},"geometry":{"type":"MultiPolygon","coordinates":[[[[2.226988345256697,41.408424459836176],[2.227238619673621,41.408952520164064],[2.227383986846669,41.40899515232556],[2.227499764957817,41.409412488706266],[2.227718605921371,41.40962223731696],[2.227864423268736,41.40962700289744],[2.228039827081993,41.4092570637501],[2.228008115700793,41.40896147279376],[2.227780068614874,41.40867971182322],[2.227686298928769,41.40852760642169],[2.227563518021263,41.408276846766995],[2.227404992469593,41.40807128975732],[2.227274357207768,41.408059051765335],[2.227117541777107,41.408133736470745],[2.226993509549162,41.408413133832696],[2.226988345256697,41.408424459836176]]]]}},{"type":"Feature","properties":{"nom":"Besòs","ha":0,"districte":"—","ident":"—"},"geometry":{"type":"MultiPolygon","coordinates":[[[[2.199449829851306,41.45073917394837],[2.199726245594435,41.45097777661254],[2.199806399562374,41.45100862916131],[2.199810920591819,41.45105031617366],[2.199945343220669,41.45117053754298],[2.200026497725357,41.45111997920607],[2.200141575293332,41.45097119808702],[2.200299431796469,41.45082271425038],[2.200591727754838,41.45058806653247],[2.20072176219107,41.45045074936391],[2.200765517422572,41.45037152910801],[2.200843433560835,41.450379644169146],[2.201047697557023,41.4501405967926],[2.201192689226372,41.45001474357046],[2.201305268974155,41.449864050469486],[2.201407132476895,41.44976629904509],[2.201537372475936,41.449611941438214],[2.201718937616197,41.4493765221421],[2.201768002158174,41.44927461710576],[2.201261806681811,41.449098800843444],[2.200880145407215,41.44943886195045],[2.200658756332161,41.44963802792597],[2.200585757677156,41.44963941408998],[2.200336128600682,41.44988382562332],[2.200198708065605,41.4500078369711],[2.199812026316323,41.45034596611805],[2.199628330755298,41.45054917913067],[2.199449853128053,41.45073728067559],[2.199449853128053,41.45073728067559],[2.199449829851306,41.45073917394837]]]]}},{"type":"Feature","properties":{"nom":"Sagrada Família","ha":0,"districte":"—","ident":"—"},"geometry":{"type":"MultiPolygon","coordinates":[[[[2.172340361743075,41.40271237111054],[2.172342576003933,41.40273605514751],[2.172554973242443,41.40289284561893],[2.172659570616254,41.402973596003484],[2.172673981392831,41.402977486523916],[2.172689829567196,41.40296718651332],[2.172728182836346,41.40296698892281],[2.172752940066875,41.40294823244155],[2.17286722433872,41.402860061992165],[2.172899627233907,41.40283331328573],[2.172977688438466,41.40277565086551],[2.173020886175245,41.40274045919745],[2.173036764242614,41.40272779254234],[2.173037680933713,41.40270507774611],[2.173037088298697,41.402702233313455],[2.172667351238857,41.40270714904996],[2.17234040378572,41.40270905787774],[2.172340361743075,41.40271237111054]]]]}},{"type":"Feature","properties":{"nom":"Glòries","ha":0,"districte":"—","ident":"—"},"geometry":{"type":"MultiPolygon","coordinates":[[[[2.186411427305315,41.403896612210254],[2.186451940002308,41.403950151935035],[2.18646228329602,41.40395259188211],[2.186506951735988,41.4039753924229],[2.186563865728464,41.4039741380452],[2.186623115776173,41.40396201282119],[2.186638036745063,41.40395028424504],[2.186646908750681,41.403944666615665],[2.186664403356211,41.40392822260659],[2.186679454160395,41.40390608097229],[2.186683875402951,41.403904455457486],[2.186686825346029,41.403894772383104],[2.186691901802356,41.40389102136923],[2.186692894953191,41.403887004810066],[2.186745895181859,41.40384667028689],[2.186749820554164,41.403834390612765],[2.186758215787534,41.40379137398269],[2.186748487824752,41.40376479693391],[2.186730293706266,41.40373650327387],[2.186702314166608,41.40371145397736],[2.186678308748945,41.403695426650614],[2.186663309614422,41.403688220187625],[2.18662514182157,41.403673512821626],[2.186573936142126,41.403670784007396],[2.186518369716532,41.40369003568616],[2.186508258139677,41.403694224454775],[2.186466089639865,41.40372303808184],[2.186432604169724,41.40376138033765],[2.186403843821065,41.40382413415449],[2.186406128021436,41.40389302452053],[2.186411427305315,41.403896612210254]]]]}},{"type":"Feature","properties":{"nom":"Ca l'alier","ha":0,"districte":"—","ident":"—"},"geometry":{"type":"MultiPolygon","coordinates":[[[[2.204043564158216,41.409644432799396],[2.204126183584672,41.409726895981805],[2.204289587302858,41.4096300402441],[2.204203195516484,41.409547551085154],[2.204043564158216,41.409644432799396]]]]}},{"type":"Feature","properties":{"nom":"Pla i Armengol","ha":0,"districte":"—","ident":"—"},"geometry":{"type":"MultiPolygon","coordinates":[[[[2.171111703691562,41.41500655076455],[2.170772569546854,41.41517073007767],[2.170719512800384,41.41518928210397],[2.170562785168876,41.41525063597852],[2.170602038419595,41.41532855018751],[2.170675924505241,41.415452156701136],[2.170780208310179,41.415558941259576],[2.170843577236656,41.41571844730321],[2.170907765087668,41.41581358210122],[2.170995166568673,41.415863441468076],[2.171099523762913,41.4159645459278],[2.171204386720806,41.416025891604434],[2.171292173771621,41.41604545841331],[2.171367553928127,41.41605168168661],[2.171419865267915,41.41609182077106],[2.171481996392608,41.416150964991026],[2.171529181477151,41.41619864088636],[2.171556859433802,41.41619789346895],[2.171637907451402,41.41615398110384],[2.171965342026282,41.41602001018012],[2.171985679060896,41.41600311554801],[2.171987225149461,41.415980405342566],[2.171959751684676,41.41596506005821],[2.171931965616575,41.41597432729444],[2.171949198420524,41.41600379971352],[2.171669682757198,41.41612770166186],[2.171627491694488,41.416082901947576],[2.171754075509019,41.416018489465046],[2.17175435211406,41.41599671684611],[2.17173044685934,41.4159974914718],[2.17157472313299,41.41607873510741],[2.171542387979334,41.41605010060639],[2.171497982727963,41.41598161684579],[2.171454690738209,41.415924501751],[2.171408570939342,41.4158919810507],[2.171377457391204,41.415866195467316],[2.171345363072357,41.4158186282008],[2.171293244521863,41.41576334291449],[2.171251053951808,41.41571854306395],[2.171220133091133,41.415677611270034],[2.171192888588205,41.4156442797295],[2.171154374476098,41.415607080105396],[2.171071251313858,41.4155174893488],[2.171047839719546,41.41547945177782],[2.171007039433405,41.4154242479087],[2.17102993972493,41.415403585024414],[2.171113490111431,41.41536063777404],[2.171236300436475,41.4152961986651],[2.171331276554497,41.415244813059054],[2.171111703691562,41.41500655076455]]]]}},{"type":"Feature","properties":{"nom":"Antoni Gaudí","ha":0,"districte":"—","ident":"—"},"geometry":{"type":"MultiPolygon","coordinates":[[[[2.17501184644836,41.40425424512299],[2.174983335375355,41.40432125810228],[2.175008840913371,41.40439244530126],[2.175028610720528,41.40442004205671],[2.175051984864427,41.40446091878986],[2.175085154170823,41.40452269367793],[2.175274638562993,41.40465280655001],[2.175324859573571,41.40465884687068],[2.17540671708282,41.40464901959941],[2.175545201857866,41.40463581116129],[2.17562594557087,41.40461461506301],[2.175684296766612,41.4045743239961],[2.175731523443023,41.40451880561621],[2.175779096965949,41.40443583469988],[2.175826789989192,41.40434339737655],[2.175851312954042,41.404293396655476],[2.175745541904188,41.40420554033881],[2.175643231984495,41.404142323552385],[2.175600985960791,41.4041022584416],[2.175486929748251,41.40407303942281],[2.175306320051326,41.404036716201325],[2.175298782183197,41.404036188809336],[2.175244765984583,41.404081717742734],[2.175192689547504,41.40412300029699],[2.175153922560246,41.40415585772683],[2.175120340422693,41.40417644490103],[2.17501184644836,41.40425424512299]]]]}},{"type":"Feature","properties":{"nom":"Diagonal Mar","ha":0,"districte":"—","ident":"—"},"geometry":{"type":"MultiPolygon","coordinates":[[[[2.216467397677752,41.408280276164106],[2.216420298832231,41.40822315192177],[2.216371072028882,41.40813382452417],[2.21615453728818,41.4079448980121],[2.215951192320672,41.40770493783139],[2.215648237008852,41.40738287992659],[2.215375233997721,41.4070799599755],[2.215099582043905,41.406788381994446],[2.214918011095995,41.406620519592266],[2.214407324037238,41.40621562238305],[2.214090737339882,41.40598245940445],[2.213557659765697,41.405766750473276],[2.213407325323579,41.40572027998914],[2.212986045817305,41.40603549870682],[2.212126077249863,41.40664877117511],[2.21112878370223,41.40738606330374],[2.211130515308085,41.40765873189643],[2.211659002511275,41.40804672445655],[2.212144972970477,41.40841548895076],[2.212815400371774,41.408921841890056],[2.213398503605762,41.409370790445294],[2.213889455018557,41.40974526192597],[2.214031661139098,41.409840905910976],[2.21414192733417,41.40987384775104],[2.214184588807053,41.40988171293133],[2.214270482111725,41.409850110918015],[2.214590046076307,41.40962886587727],[2.215001122482308,41.409326826039766],[2.215209105742288,41.40918150258679],[2.215453894857792,41.409008027996315],[2.216467397677752,41.408280276164106]]]]}},{"type":"Feature","properties":{"nom":"Espai Nur","ha":0,"districte":"—","ident":"—"},"geometry":{"type":"MultiPolygon","coordinates":[[[[2.153090213141851,41.38170870379596],[2.152958237767014,41.38161116618935],[2.152900673136011,41.38173665713469],[2.153006843940944,41.381788561961365],[2.153090213141851,41.38170870379596]]]]}},{"type":"Feature","properties":{"nom":"Parc Lineal la Sagrera","ha":0,"districte":"—","ident":"—"},"geometry":{"type":"MultiPolygon","coordinates":[[[[2.197133163486777,41.43738838130185],[2.197203475919864,41.43704237265193],[2.196436848984231,41.436978323658124],[2.196421076320354,41.43703312321619],[2.197133163486777,41.43738838130185]]]]}}]}